id	title	area	description	address	tel	latitude	longitude
1	いずみ観光株式会社	今治地区	道路旅客運送業	愛媛県今治市上徳乙216-4	0898-48-7707	34.041971	133.015802
2	いずみ交通有限会社	今治地区	道路旅客運送業	愛媛県今治市広紹寺町2-1-35	0898-23-1630	34.053188	133.001121
3	イオン今治店	今治地区	各種商品小売業	愛媛県今治市馬越町4-8-1	0898-25-3131	34.056258	132.979887
4	イオンスタイル今治新都市	今治地区	各種商品小売業	愛媛県今治市にぎわい広場1-1	0898-34-6100	34.042547	132.961301
5	イオンモール今治新都市	今治地区	各種商品小売業	愛媛県今治市にぎわい広場1-1	0898-34-3700	34.042547	132.961301
6	伊予鉄高島屋今治支店	今治地区	各種商品小売業	愛媛県今治市旭町2-3-4 今治国際ホテル1階	0898-24-2400	34.062131	133.000574
7	Ａコープいまばり愛彩	今治地区	各種商品小売業	愛媛県今治市別宮町9-1-27	0898-32-7880	34.06956	132.989559
8	コープ今治	今治地区	各種商品小売業	愛媛県今治市馬越町4-9-5	0898-25-3600	34.056928	132.978957
9	コープえひめ今治支所	今治地区	各種商品小売業	愛媛県今治市北高下町1-3-53	0898-33-0031	34.054811	133.013749
10	コープ喜田村	今治地区	各種商品小売業	愛媛県今治市喜田村3-1-33	0898-48-8808	34.048873	133.020282
11	ザ・ビッグ今治ワールドプラザ店	今治地区	各種商品小売業	愛媛県今治市東村1-14-2	0898-47-2772	34.042283	133.028331
12	ダイレックス　今治店	今治地区	各種商品小売業	愛媛県今治市北鳥生町4-6-28	0898-52-7030	34.051922	133.004468
13	ディオ今治北店	今治地区	各種商品小売業	愛媛県今治市波止浜112	0898-43-8580		
14	ドン・キホーテ今治店　ワールドプラザ	今治地区	各種商品小売業	愛媛県今治市東村1-14-2	0898-47-1411	34.042283	133.028331
15	ニトリ　今治店	今治地区	各種商品小売業	愛媛県今治市東村南1-9-41	0898-47-3344	34.03676	133.032348
16	波止浜スーパー　ファンタブルキッチン	今治地区	各種商品小売業	愛媛県今治市波止浜11-27	0898-41-5355	34.10081	132.968986
17	ハローズ今治店	今治地区	各種商品小売業	愛媛県今治市土橋町1-4-26	0898-35-3986	34.04805	133.006961
18	ハローズ中寺店	今治地区	各種商品小売業	愛媛県今治市中寺963-1	0898-25-3986	34.042989	132.988266
19	フジ今治店	今治地区	各種商品小売業	愛媛県今治市小泉4-5-1	0898-23-2311	34.047432	132.980739
20	フジグラン今治	今治地区	各種商品小売業	愛媛県今治市東門町5-13-1	0898-34-1411	34.061369	133.014766
21	フジ波止浜店	今治地区	各種商品小売業	愛媛県今治市内堀2-1-14	0898-39-0411		
22	フレッシュバリュー今治城東店	今治地区	各種商品小売業	愛媛県今治市枝堀町1-5-2	0898-33-7222	34.06156	133.009525
23	フレッシュバリュー今治高市店	今治地区	各種商品小売業	愛媛県今治市高市字頓田町甲788-7	0898-36-6100		
24	フレッシュバリュー今治本町店	今治地区	各種商品小売業	愛媛県今治市本町6-782-1	0898-34-8800	34.075921	132.99628
25	マックスバリュ今治阿方店	今治地区	各種商品小売業	愛媛県今治市阿方甲371-2	0898-33-7824	34.061042	132.96464
26	マルナカ今治駅前店	今治地区	各種商品小売業	愛媛県今治市大正町1-2-5	0898-34-5131	34.066906	133.00008
27	マルナカ今治桜井店	今治地区	各種商品小売業	愛媛県今治市東村南1丁目甲46-1	0898-43-5181		
28	マルナカ今治松本店	今治地区	各種商品小売業	愛媛県今治市松本町5-1-1	0898-34-6088	34.058993	133.006581
29	三越今治	今治地区	各種商品小売業	愛媛県今治市旭町2-3-4 今治国際ホテル1階	0898-31-8888	34.062131	133.000574
30	四村ショッパーズ	今治地区	各種商品小売業	愛媛県今治市四村286-1	0898-22-7877	34.037701	132.979738
31	アスビー　イオンモール今治新都市	今治地区	織物・衣服・身の回り品小売業	愛媛県今治市にぎわい広場1-1	0898-22-4400	34.042547	132.961301
32	アトリエ・ムウ	今治地区	織物・衣服・身の回り品小売業	愛媛県今治市旭町1-1-4	0898-31-8111	34.065392	132.999569
33	アベイル　フレスポ今治店	今治地区	織物・衣服・身の回り品小売業	愛媛県今治市衣干町4-3-30	0898-33-8007	34.045565	133.013558
34	アベニュー　フジグラン今治店	今治地区	織物・衣服・身の回り品小売業	愛媛県今治市東門町5-13-1	0898-33-4573	34.061369	133.014766
35	ＡＭＥＲＩＣＡＮ　ＨＯＬＩＣ　イオンモール今治新都市	今治地区	織物・衣服・身の回り品小売業	愛媛県今治市にぎわい広場1-1	0898-55-8229	34.042547	132.961301
36	アワーグラス　イオンモール今治新都市	今治地区	織物・衣服・身の回り品小売業	愛媛県今治市にぎわい広場1-1	0898-35-2467	34.042547	132.961301
37	いさみ	今治地区	織物・衣服・身の回り品小売業	愛媛県今治市常盤町3-4-4	0898-22-0134	34.066314	133.000663
38	ｉｋｋａ　イオンモール今治新都市	今治地区	織物・衣服・身の回り品小売業	愛媛県今治市にぎわい広場1-1	0898-34-7507	34.042547	132.961301
39	今治タオル　今治国際ホテル店	今治地区	織物・衣服・身の回り品小売業	愛媛県今治市旭町2-3-4	0898-32-5533	34.062131	133.000574
40	今治タオル　本店	今治地区	織物・衣服・身の回り品小売業	愛媛県今治市東門町5-14-3 テクスポート今治1F	0898-34-3486	34.061458	133.016377
41	インテリエ　フジグラン今治店	今治地区	織物・衣服・身の回り品小売業	愛媛県今治市東門町5-13-1	0898-33-0488	34.061369	133.014766
42	ＡＢＣ－ＭＡＲＴ　ニトリ今治	今治地区	織物・衣服・身の回り品小売業	愛媛県今治市東村南1-9-41-1F	0898-36-6810	34.03676	133.032348
43	Ｆ・ＳＴＹＬＥ　イオンモール今治新都市	今治地区	織物・衣服・身の回り品小売業	愛媛県今治市にぎわい広場1-1	0898-35-2839	34.042547	132.961301
44	Ｍ２（エムニ）　フジグラン今治店	今治地区	織物・衣服・身の回り品小売業	愛媛県今治市東門町5-13-1	0898-32-3339	34.061369	133.014766
45	オルネット	今治地区	織物・衣服・身の回り品小売業	愛媛県今治市八町西2-4-8	0898-22-7613	34.047055	132.990705
46	㈱カナヤ	今治地区	織物・衣服・身の回り品小売業	愛媛県今治市米屋町1-2-22	0898-32-3100	34.068495	133.00214
47	かなやふとん店	今治地区	織物・衣服・身の回り品小売業	愛媛県今治市本町4-2-2	0898-23-3363	34.071	133.001018
48	きものセンター京都	今治地区	織物・衣服・身の回り品小売業	愛媛県今治市常盤町2-6-12	0898-32-9550	34.067295	133.001643
49	きもの大好き　よしだや	今治地区	織物・衣服・身の回り品小売業	愛媛県今治市本町3-1-28	0898-22-1271	34.07008	133.001365
50	クールカレアン　イオンモール今治新都市	今治地区	織物・衣服・身の回り品小売業	愛媛県今治市にぎわい広場1-1	0898-52-8338	34.042547	132.961301
51	靴下屋　イオンモール今治新都市	今治地区	織物・衣服・身の回り品小売業	愛媛県今治市にぎわい広場1-1	0898-35-2530	34.042547	132.961301
52	靴のヤザマ　イオン今治店	今治地区	織物・衣服・身の回り品小売業	愛媛県今治市馬越町4-8-1	0898-33-3009	34.056258	132.979887
53	くつ家ともだ	今治地区	織物・衣服・身の回り品小売業	愛媛県今治市常盤町3-4-15	0898-32-0964	34.066089	133.000227
54	クボーウル	今治地区	織物・衣服・身の回り品小売業	愛媛県今治市常盤町6-2-34	0898-31-2288	34.058942	132.9927
55	久保商店　喜田村店	今治地区	織物・衣服・身の回り品小売業	愛媛県今治市喜田村2-5-1	0898-48-1011	34.045804	133.020687
56	久保商店近見店	今治地区	織物・衣服・身の回り品小売業	愛媛県今治市近見町2-1-58	0898-33-3233	34.086149	132.988149
57	㈲くらしきや	今治地区	織物・衣服・身の回り品小売業	愛媛県今治市辻堂4-3-11	0898-48-7644	34.037152	133.005742
58	Ｇｒｅｅｎ Ｐａｒｋｓ ｔｏｐｉｃ　イオンモール今治新都市	今治地区	織物・衣服・身の回り品小売業	愛媛県今治市にぎわい広場1-1	0898-35-2608	34.042547	132.961301
59	ｇｒｏｖｅ　イオンモール今治新都市	今治地区	織物・衣服・身の回り品小売業	愛媛県今治市にぎわい広場1-1	0898-35-3520	34.042547	132.961301
60	cross site (クロスサイト)　フジグラン今治店	今治地区	織物・衣服・身の回り品小売業	愛媛県今治市東門町5-13-1	0898-32-3294	34.061369	133.014766
61	コットンハウスBee常盤店	今治地区	織物・衣服・身の回り品小売業	愛媛県今治市常盤町6-6-16	0898-32-6331	34.057836	132.98989
62	こどもの森	今治地区	織物・衣服・身の回り品小売業	愛媛県今治市共栄町1-3-8	0898-23-5996	34.067475	133.000638
63	コンテックスタオルガーデン	今治地区	織物・衣服・身の回り品小売業	愛媛県今治市宅間甲854-1	0898-23-3933		
64	さがん	今治地区	織物・衣服・身の回り品小売業	愛媛県今治市中寺250-1	0898-23-6432	34.035801	132.998009
65	ZAK ZAK ワールドプラザ店	今治地区	織物・衣服・身の回り品小売業	愛媛県今治市東村1-14-2-2F	0898-36-6727	34.042283	133.028331
66	ＳＡＣ’Ｓ　ＢＡＲ　ＡＮＯＴＨＥＲ　ＬＯＵＮＧＥ　イオンモール今治新都市	今治地区	織物・衣服・身の回り品小売業	愛媛県今治市にぎわい広場1-1	0898-35-3394	34.042547	132.961301
67	ＳＡＣ’Ｓ　ＢＡＲ　Ｊｅａｎ　イオンモール今治新都市	今治地区	織物・衣服・身の回り品小売業	愛媛県今治市にぎわい広場1-1	0898-35-3035	34.042547	132.961301
68	ＳＭ２　ｋｅｉｔｔｉｏ　イオンモール今治新都市	今治地区	織物・衣服・身の回り品小売業	愛媛県今治市にぎわい広場1-1	0898-22-8775	34.042547	132.961301
69	サンワークス産業道路店	今治地区	織物・衣服・身の回り品小売業	愛媛県今治市南高下町1-4-28	0898-25-0105	34.052361	133.016732
70	サンワークスバイパス店	今治地区	織物・衣服・身の回り品小売業	愛媛県今治市片山1-3-23	0898-22-0800	34.052737	132.978429
71	ＧＵ　イオンモール今治新都市	今治地区	織物・衣服・身の回り品小売業	愛媛県今治市にぎわい広場1-1	0898-35-4841	34.042547	132.961301
72	じぶんまくら　イオンモール今治新都市	今治地区	織物・衣服・身の回り品小売業	愛媛県今治市にぎわい広場1-1	0898-35-5248	34.042547	132.961301
73	しまむら　今治店	今治地区	織物・衣服・身の回り品小売業	愛媛県今治市衣干町4-54-1	0898-33-8519	34.044954	133.012141
74	シャンブル　フレスポ今治店	今治地区	織物・衣服・身の回り品小売業	愛媛県今治市衣干町4-3-30	0898-33-7356	34.045565	133.013558
75	シューズカンパニー　フジグラン今治店	今治地区	織物・衣服・身の回り品小売業	愛媛県今治市東門町5-13-1	0898-34-1475	34.061369	133.014766
76	シュープラザ今治店	今治地区	織物・衣服・身の回り品小売業	愛媛県今治市喜田村2-2-8	0898-36-6300	34.049151	133.018929
77	シューラルー　フジグラン今治店	今治地区	織物・衣服・身の回り品小売業	愛媛県今治市東門町5-13-1	0898-39-2502	34.061369	133.014766
78	ＳＨＯＴ　イオンモール今治新都市	今治地区	織物・衣服・身の回り品小売業	愛媛県今治市にぎわい広場1-1	0898-35-5586	34.042547	132.961301
79	寝具のアサウミ	今治地区	織物・衣服・身の回り品小売業	愛媛県今治市波止浜11-108	0898-41-5922	34.101193	132.970617
80	タオル美術館　イオンモール今治新都市	今治地区	織物・衣服・身の回り品小売業	愛媛県今治市にぎわい広場1-1	0898-35-3474	34.042547	132.961301
81	タツミヤ　フジグラン今治店	今治地区	織物・衣服・身の回り品小売業	愛媛県今治市東門町5-13-1	0898-24-0224	34.061369	133.014766
82	ちづる　フジグラン今治店	今治地区	織物・衣服・身の回り品小売業	愛媛県今治市東門町5-13-1	0898-34-3363	34.061369	133.014766
83	丁子屋	今治地区	織物・衣服・身の回り品小売業	愛媛県今治市本町2-1-1	0898-33-1282		
84	Ｔ’ｓ　ｃｏｌｌｅｃｔｉｏｎ　イオンモール今治新都市	今治地区	織物・衣服・身の回り品小売業	愛媛県今治市にぎわい広場1-1	0898-22-0636	34.042547	132.961301
85	ティナリーサ　プラス　フジグラン今治店	今治地区	織物・衣服・身の回り品小売業	愛媛県今治市東門町5-13-1	0898-34-6866	34.061369	133.014766
86	ティナリーサプラス　イオンモール今治新都市	今治地区	織物・衣服・身の回り品小売業	愛媛県今治市にぎわい広場1-1	0898-35-0057	34.042547	132.961301
87	有限会社　豊島商店	今治地区	織物・衣服・身の回り品小売業	愛媛県今治市本町4-1-14	0898-22-3377	34.071336	133.000243
88	トラッドハウスみやじ	今治地区	織物・衣服・身の回り品小売業	愛媛県今治市拝志5-2	0898-48-1434	34.041863	133.026442
89	ニシカワ	今治地区	織物・衣服・身の回り品小売業	愛媛県今治市常盤町3-4-7	0898-23-8580	34.066239	133.000541
90	バースデイ　今治店	今治地区	織物・衣服・身の回り品小売業	愛媛県今治市北高下町3-3-7	0898-33-8680	34.050417	133.010464
91	ハニーズ　イオンモール今治新都市	今治地区	織物・衣服・身の回り品小売業	愛媛県今治市にぎわい広場1-1	0898-35-2769	34.042547	132.961301
92	ハニーズ　フジグラン今治店	今治地区	織物・衣服・身の回り品小売業	愛媛県今治市東門町5-13-1	0898-25-6110	34.061369	133.014766
93	ＨＡＲＵＹＡＭＡ　イオンモール今治新都市	今治地区	織物・衣服・身の回り品小売業	愛媛県今治市にぎわい広場1-1	0898-35-4711	34.042547	132.961301
94	はるやま商事　今治店	今治地区	織物・衣服・身の回り品小売業	愛媛県今治市北高下町1-3-37	0898-32-9758	34.054875	133.014144
95	BIG久保	今治地区	織物・衣服・身の回り品小売業	愛媛県今治市別宮町4-1-24	0898-22-5808	34.07001	132.994336
96	ヒナヤ　フジグラン今治店	今治地区	織物・衣服・身の回り品小売業	愛媛県今治市東門町5-13-1	0898-33-0911	34.061369	133.014766
97	ピンクアドベ　イオンモール今治新都市	今治地区	織物・衣服・身の回り品小売業	愛媛県今治市にぎわい広場1-1	0898-35-2190	34.042547	132.961301
98	Ｂｏｕ Ｊｅｌｏｕｄ　イオンモール今治新都市	今治地区	織物・衣服・身の回り品小売業	愛媛県今治市にぎわい広場1-1	0898-55-8940	34.042547	132.961301
99	フォーエル　イオンモール今治新都市	今治地区	織物・衣服・身の回り品小売業	愛媛県今治市にぎわい広場1-1	0898-35-4717	34.042547	132.961301
100	ブティック　花	今治地区	織物・衣服・身の回り品小売業	愛媛県今治市米屋町1-2-1	0898-23-6237	34.068036	133.002568
101	ブティック　マイ	今治地区	織物・衣服・身の回り品小売業	愛媛県今治市栄町1-1-12	0898-23-4793	34.067819	133.000902
102	プティマイン　イオンモール今治新都市	今治地区	織物・衣服・身の回り品小売業	愛媛県今治市にぎわい広場1-1	0898-25-5990	34.042547	132.961301
103	ふとん・ギフト　にのみや	今治地区	織物・衣服・身の回り品小売業	愛媛県今治市横田町1-8-48	0898-24-0185	34.047084	133.008194
104	ふとんのこもだ　フジグラン今治店	今治地区	織物・衣服・身の回り品小売業	愛媛県今治市東門町5-13-1	0898-35-3086	34.061369	133.014766
105	ｂｒａｎｓｈｅｓ　イオンモール今治新都市	今治地区	織物・衣服・身の回り品小売業	愛媛県今治市にぎわい広場1-1	0898-35-5754	34.042547	132.961301
106	フリーフライト	今治地区	織物・衣服・身の回り品小売業	愛媛県今治市郷桜井1-6-16	0898-48-2711	34.017599	133.034519
107	マルア	今治地区	織物・衣服・身の回り品小売業	愛媛県今治市常盤町3-4-5	0898-32-0357	34.066281	133.00061
108	丸五	今治地区	織物・衣服・身の回り品小売業	愛媛県今治市本町1-2-2	0898-32-0505	34.068353	133.003185
109	マルマス靴店	今治地区	織物・衣服・身の回り品小売業	愛媛県今治市常盤町3-5-5	0898-32-0579	34.065883	132.999932
110	まるよし洋装店	今治地区	織物・衣服・身の回り品小売業	愛媛県今治市常盤町4-7-28	0898-22-1541	34.063861	132.997141
111	三浦屋	今治地区	織物・衣服・身の回り品小売業	愛媛県今治市中浜町3-1-1	0898-33-0333	34.070575	133.002546
112	みかさや渡部呉服店	今治地区	織物・衣服・身の回り品小売業	愛媛県今治市常盤町2-4-13	0898-22-0204	34.067397	133.002412
113	ミモザ　フジグラン今治店	今治地区	織物・衣服・身の回り品小売業	愛媛県今治市東門町5-13-1	0898-34-1439	34.061369	133.014766
114	ユニクロ今治店	今治地区	織物・衣服・身の回り品小売業	愛媛県今治市旭町3-2-6	0898-24-7350	34.060862	133.002152
115	洋服の青山　今治本店	今治地区	織物・衣服・身の回り品小売業	愛媛県今治市土橋町1-4-23	0898-32-6160	34.047656	133.007681
116	ライトオン　イオンモール今治新都市	今治地区	織物・衣服・身の回り品小売業	愛媛県今治市にぎわい広場1-1	0898-23-5610	34.042547	132.961301
117	ラスピーニ	今治地区	織物・衣服・身の回り品小売業	愛媛県今治市常盤町2-5-10	0898-23-6754	34.066906	133.001638
118	ラスピーニドゥーエ	今治地区	織物・衣服・身の回り品小売業	愛媛県今治市旭町1-1-4 2F	0898-31-8111	34.065392	132.999569
119	ＬＡＰＡＸ（ラパックス）　フジグラン今治店	今治地区	織物・衣服・身の回り品小売業	愛媛県今治市東門町5-13-1	0898-34-1761	34.061369	133.014766
120	リゲッタカヌーｂｙリケリケ　イオンモール今治新都市	今治地区	織物・衣服・身の回り品小売業	愛媛県今治市にぎわい広場1-1	0898-35-3818	34.042547	132.961301
121	ルネオブパリスｂｙフォンテーヌ　イオンモール今治新都市	今治地区	織物・衣服・身の回り品小売業	愛媛県今治市にぎわい広場1-1	0898-22-9722	34.042547	132.961301
122	レリアン	今治地区	織物・衣服・身の回り品小売業	愛媛県今治市常盤町3-4-1	0898-23-7808	34.066417	133.000821
123	ワークウェイ	今治地区	織物・衣服・身の回り品小売業	愛媛県今治市衣干町4-6-26	0898-34-8808	34.046076	133.013035
124	ワークマン今治北インター店	今治地区	織物・衣服・身の回り品小売業	愛媛県今治市大新田町5-6-53	0898-22-1755	34.081482	132.991332
125	和装の店　井戸	今治地区	織物・衣服・身の回り品小売業	愛媛県今治市東門町4-3-25	0898-22-1781	34.059696	133.013958
126	一六本舗　今治中央店	今治地区	飲食料品小売業	愛媛県今治市馬越町3-3-32	0898-23-0016	34.057386	132.979815
127	一笑堂	今治地区	飲食料品小売業	愛媛県今治市中浜町1-1-21	0898-22-0295	34.069406	133.003679
128	魚貞蒲鉾店	今治地区	飲食料品小売業	愛媛県今治市常盤町1-4-12	0898-32-0842	34.068417	133.004118
129	卜部蒲鉾店	今治地区	飲食料品小売業	愛媛県今治市黄金町1-5-18	0898-22-1483	34.066439	133.001863
130	お酒のエスエス今治店	今治地区	飲食料品小売業	愛媛県今治市馬越町2-3-36	0898-25-3711	34.058777	132.982982
131	お酒のエスエス今治西店	今治地区	飲食料品小売業	愛媛県今治市別名224-1	0898-25-2800	34.040275	132.97583
132	お酒のエスエス本店	今治地区	飲食料品小売業	愛媛県今治市喜田村2-4-38	0898-48-1763	34.046187	133.020871
133	小沢マート	今治地区	飲食料品小売業	愛媛県今治市喜田村5-5-10	0898-48-6173	34.046635	133.025101
134	おもいで横丁　フジグラン今治店	今治地区	飲食料品小売業	愛媛県今治市東門町5-13-1		34.061369	133.014766
135	菓子処　ハタダ　今治国際ホテル店	今治地区	飲食料品小売業	愛媛県今治市旭町2-3-4	0898-32-5123	34.062131	133.000574
136	菓子処　ハタダ　第一病院前店	今治地区	飲食料品小売業	愛媛県今治市北日吉町1-13	0898-25-6030		
137	菓子屋　艷	今治地区	飲食料品小売業	愛媛県今治市片山1-1-1	0898-22-1192	34.054231	132.981671
138	果琳　イオンモール今治新都市	今治地区	飲食料品小売業	愛媛県今治市にぎわい広場1-1	0898-35-2701	34.042547	132.961301
139	カルディコーヒーファーム　イオンモール今治新都市	今治地区	飲食料品小売業	愛媛県今治市にぎわい広場1-1	0898-22-0322	34.042547	132.961301
140	ギターズ　フジ今治店	今治地区	飲食料品小売業	愛媛県今治市小泉4-5-1	0898-32-1301	34.047432	132.980739
141	業務スーパー今治店	今治地区	飲食料品小売業	愛媛県今治市北高下町1-3-25	0898-34-3511	34.055703	133.014311
142	くみあいマーケット郷店	今治地区	飲食料品小売業	愛媛県今治市郷本町1-2-15	0898-32-2355	34.049291	132.996613
143	ケーキ工房　Ｓ	今治地区	飲食料品小売業	愛媛県今治市八町西2-2-3	0898-22-3513	34.048096	132.990847
144	工房マインドDAN	今治地区	飲食料品小売業	愛媛県今治市旦甲287-5	0898-47-3001		
145	サーティワン　アイスクリーム　イオンモール今治新都市	今治地区	飲食料品小売業	愛媛県今治市にぎわい広場1-1	0898-55-8535	34.042547	132.961301
146	彩菜今治店	今治地区	飲食料品小売業	愛媛県今治市別宮町9-1-27	0898-32-3551	34.06956	132.989559
147	さいさいきて屋	今治地区	飲食料品小売業	愛媛県今治市中寺279-1	0898-33-3131	34.038629	132.993632
148	彩菜サイコー　イオンモール今治新都市	今治地区	飲食料品小売業	愛媛県今治市にぎわい広場1-1	0898-35-3650	34.042547	132.961301
149	菜遊季　フジグラン今治店	今治地区	飲食料品小売業	愛媛県今治市東門町5-13-1	0898-34-1488	34.061369	133.014766
150	サカエマート	今治地区	飲食料品小売業	愛媛県今治市北日吉町3-5-23	0898-24-0048	34.059802	132.983699
151	シィルブープレ	今治地区	飲食料品小売業	愛媛県今治市唐子台東1-11-5	0898-47-2896	34.032348	133.028814
152	白石酒店	今治地区	飲食料品小売業	愛媛県今治市喜田村6-3-45	0898-48-5544	34.044415	133.022418
153	神野商店	今治地区	飲食料品小売業	愛媛県今治市桜井団地3-9-5	0898-48-1515	34.025237	133.015568
154	スイス菓子　アルム	今治地区	飲食料品小売業	愛媛県今治市別宮町3-3-3	0898-23-1035	34.069	132.996322
155	そごうマート上徳店	今治地区	飲食料品小売業	愛媛県今治市上徳字井手口372-6	0898-48-2110		
156	そごうマート八町店	今治地区	飲食料品小売業	愛媛県今治市松木字八反地389-1	0898-35-1001		
157	高橋屋	今治地区	飲食料品小売業	愛媛県今治市常盤町3-1-2	0898-23-0950	34.066689	133.001246
158	有限会社中村屋蒲鉾店	今治地区	飲食料品小売業	愛媛県今治市常盤町1-4-3	0898-22-1152	34.068597	133.004284
159	二宮蒲鉾店	今治地区	飲食料品小売業	愛媛県今治市旭町1-5-17	0898-22-1662	34.064514	133.000243
160	のま果樹園　今治北日吉店	今治地区	飲食料品小売業	愛媛県今治市北日吉町1-11-10	0898-32-0223	34.066271	132.990487
161	バイカルベーカリー	今治地区	飲食料品小売業	愛媛県今治市常盤町5-5-26	0898-22-5516	34.059531	132.992923
162	ハタダ　南鳥生店	今治地区	飲食料品小売業	愛媛県今治市南鳥生町4-5-20	0898-35-2320	34.050583	133.006437
163	パティスリー　イリス	今治地区	飲食料品小売業	愛媛県今治市郷新屋敷町5-2-8	0898-77-2187	34.041687	133.000023
164	パティスリークラーベ	今治地区	飲食料品小売業	愛媛県今治市北日吉町1-13-7	0898-35-4492	34.065508	132.990584
165	ビアードパパの作りたて工房　イオンモール今治新都市	今治地区	飲食料品小売業	愛媛県今治市にぎわい広場1-1	050-3521-1867	34.042547	132.961301
166	檜垣蒲鉾	今治地区	飲食料品小売業	愛媛県今治市蔵敷町1-5-3	0898-22-2166	34.058934	132.998397
167	ファミリーマート今治阿方店	今治地区	飲食料品小売業	愛媛県今治市阿方甲306-1	0898-22-1281	34.060939	132.971062
168	ファミリーマート今治五十嵐店	今治地区	飲食料品小売業	愛媛県今治市五十嵐甲101-3	0898-23-2433		
169	ファミリーマート今治糸山店	今治地区	飲食料品小売業	愛媛県今治市波止浜6-91	0898-43-1901	34.103712	132.973592
170	ファミリーマート今治馬越店	今治地区	飲食料品小売業	愛媛県今治市馬越町3丁目甲285-1	0898-31-4771		
171	ファミリーマート今治大新田町店	今治地区	飲食料品小売業	愛媛県今治市大新田町4-1-8	0898-31-3901	34.081988	132.991788
172	ファミリーマート今治上徳１丁目店	今治地区	飲食料品小売業	愛媛県今治市上徳1-5-30	0898-43-5711	34.042757	133.015807
173	ファミリーマート今治喜田村店	今治地区	飲食料品小売業	愛媛県今治市喜田村2-325-1	0898-48-4244		
174	ファミリーマート今治衣干一丁目店	今治地区	飲食料品小売業	愛媛県今治市衣干町1-1-19	0898-34-8150	34.049445	133.01603
175	ファミリーマート今治郷桜井三丁目店	今治地区	飲食料品小売業	愛媛県今治市郷桜井3-4-17	0898-36-6680	34.015866	133.037785
176	ファミリーマート今治郷本町店	今治地区	飲食料品小売業	愛媛県今治市郷本町2-6-34	0898-34-5534	34.046272	132.99468
177	ファミリーマート今治国分店	今治地区	飲食料品小売業	愛媛県今治市国分2丁目甲237-2	0898-47-1917		
178	ファミリーマート今治城前店	今治地区	飲食料品小売業	愛媛県今治市恵美須町3-1-32	0898-31-3122	34.065648	133.007889
179	ファミリーマート今治たちばな店	今治地区	飲食料品小売業	愛媛県今治市郷本町1-526-1	0898-33-7234	34.048735	132.997349
180	ファミリーマート今治常盤町店	今治地区	飲食料品小売業	愛媛県今治市常盤町8-4-29	0898-23-5572	34.054236	132.986415
181	ファミリーマート今治バイパス店	今治地区	飲食料品小売業	愛媛県今治市中寺610-1	0898-25-6003	34.042153	132.990149
182	ファミリーマート今治東村一丁目店	今治地区	飲食料品小売業	愛媛県今治市東村1-2-48	0898-43-4021	34.042316	133.0264
183	ファミリーマート今治別宮町店	今治地区	飲食料品小売業	愛媛県今治市別宮町2-1-8	0898-34-5255	34.067547	132.99733
184	ファミリーマート今治別宮町四丁目店	今治地区	飲食料品小売業	愛媛県今治市別宮町4-5-20	0898-23-3775	34.07023	132.993722
185	母恵夢本舗　旭町店	今治地区	飲食料品小売業	愛媛県今治市旭町3-1-31	0898-32-2722	34.062176	133.002071
186	母恵夢本舗　片山店	今治地区	飲食料品小売業	愛媛県今治市片山1-2-23	0898-32-5288	34.053028	132.979148
187	母恵夢本舗　本町本店	今治地区	飲食料品小売業	愛媛県今治市本町2-1-29	0898-32-5660	34.069022	133.002132
188	母恵夢本舗　ワールドプラザ店	今治地区	飲食料品小売業	愛媛県今治市東村1-14-2	0898-36-6525	34.042283	133.028331
189	まちなか広場ほんからどんどん	今治地区	飲食料品小売業	愛媛県今治市常盤町2-7-7	0898-32-7230		
190	松木精肉店	今治地区	飲食料品小売業	愛媛県今治市唐子台東1-17-5	0898-48-5129	34.031606	133.02877
191	まなべマート	今治地区	飲食料品小売業	愛媛県今治市南鳥生町2-1-1	0898-32-3127	34.053961	133.009408
192	マルヒ食糧	今治地区	飲食料品小売業	愛媛県今治市松本町5-1-15	0898-31-0085	34.058127	133.006781
193	ムロヤ菓舗	今治地区	飲食料品小売業	愛媛県今治市常盤町1-6-2	0898-22-0692	34.068536	133.003654
194	もりかわ鳥生店	今治地区	飲食料品小売業	愛媛県今治市北鳥生町2-1-32	0898-22-5504	34.054805	133.007931
195	ユーアイマート	今治地区	飲食料品小売業	愛媛県今治市共栄町4-6-7	0898-32-7771	34.070955	132.997224
196	夢惣菜　でん田	今治地区	飲食料品小売業	愛媛県今治市五十嵐甲62-1	0898-33-3201		
197	吉田屋餅店	今治地区	飲食料品小売業	愛媛県今治市通町1-4-17	0898-22-1774	34.067331	133.003312
198	ラブリーショップ　ムラセ	今治地区	飲食料品小売業	愛媛県今治市波止浜3-1-1	0898-41-9718	34.1078	132.96819
199	ローソン今治阿方店	今治地区	飲食料品小売業	愛媛県今治市阿方甲496-1	0898-34-8010		
200	ローソン今治駅前店	今治地区	飲食料品小売業	愛媛県今治市北宝来町2-1-1	0898-25-0122	34.064919	132.993758
201	ローソン今治延喜店	今治地区	飲食料品小売業	愛媛県今治市延喜甲282-4	0898-22-4033	34.063945	132.959987
202	ローソン今治唐子浜店	今治地区	飲食料品小売業	愛媛県今治市古国分1-8-62	0898-48-4533	34.029806	133.037035
203	ローソン今治北日吉町店	今治地区	飲食料品小売業	愛媛県今治市北日吉町2-5-45	0898-34-3251		
204	ローソン今治共栄町五丁目店	今治地区	飲食料品小売業	愛媛県今治市共栄町5-2-1	0898-31-7077	34.071716	132.997716
205	ローソン今治小泉二丁目店	今治地区	飲食料品小売業	愛媛県今治市小泉2-1-30	0898-55-8616	34.051365	132.979687
206	ローソン今治市役所前店	今治地区	飲食料品小売業	愛媛県今治市別宮町1-2-9	0898-25-7783	34.066528	132.999102
207	ローソン今治近見町店	今治地区	飲食料品小売業	愛媛県今治市近見町3-5-5	0898-25-7795	34.089929	132.98303
208	ローソン今治中寺店	今治地区	飲食料品小売業	愛媛県今治市中寺236-1	0898-33-3631	34.033588	133.000467
209	ローソン今治中堀店	今治地区	飲食料品小売業	愛媛県今治市中堀3-9-6	0898-41-5702	34.099414	132.959887
210	ローソン今治波止浜店	今治地区	飲食料品小売業	愛媛県今治市中堀1-1-11	0898-43-7021		
211	ローソン今治八町西三丁目店	今治地区	飲食料品小売業	愛媛県今治市八町西3-4-27	0898-25-6260		
212	ローソン今治松木店	今治地区	飲食料品小売業	愛媛県今治市松木34-1	0898-47-3734	34.030436	133.004817
213	ローソン今治美須賀町店	今治地区	飲食料品小売業	愛媛県今治市美須賀町3-2-7	0898-31-2500	34.060996	133.010814
214	ローソン今治南鳥生店	今治地区	飲食料品小売業	愛媛県今治市南鳥生町2-3-53	0898-33-1530	34.053489	133.010175
215	ローソン今治南宝来町一丁目店	今治地区	飲食料品小売業	愛媛県今治市南宝来町1-8-11	0898-32-5070		
216	青野サイクル	今治地区	機械器具小売業	愛媛県今治市本町5-4-20	0898-22-4074	34.072677	132.999249
217	ＡＥＯＮ　ＢＩＫＥ　イオンモール今治新都市	今治地区	機械器具小売業	愛媛県今治市にぎわい広場1-1	0898-23-3190	34.042547	132.961301
218	伊藤ジーワイ商会	今治地区	機械器具小売業	愛媛県今治市国分5-2-41	0898-47-2255	34.024973	133.028895
219	エディオン今治八町店	今治地区	機械器具小売業	愛媛県今治市松木377-11	0898-48-8500	34.033716	133.003003
220	エディオン今治東店	今治地区	機械器具小売業	愛媛県今治市北日吉町2-9-29	0898-23-5111	34.06246	132.988632
221	エディオン今治本店	今治地区	機械器具小売業	愛媛県今治市馬越町2-4-10	0898-33-8111	34.05943	132.981727
222	エディオン近見店	今治地区	機械器具小売業	愛媛県今治市大新田町5-3-9	0898-22-2335	34.080479	132.989519
223	エディオン常盤町店	今治地区	機械器具小売業	愛媛県今治市常盤町7-1-40	0898-23-0954	34.056872	132.989923
224	愛媛ダイハツ販売㈱今治店	今治地区	機械器具小売業	愛媛県今治市喜田村2-4-53	0898-47-1300	34.046373	133.019979
225	愛媛日産自動車株式会社　今治唐子浜店	今治地区	機械器具小売業	愛媛県今治市東村南1-6-14	0898-48-5005	34.035397	133.0333
226	愛媛日産自動車株式会社　今治別宮店	今治地区	機械器具小売業	愛媛県今治市別宮町7-2-56	0898-23-3630	34.075946	132.990886
227	愛媛日産自動車株式会社　カータウン今治	今治地区	機械器具小売業	愛媛県今治市桜井2-2-23	0898-47-1640	34.022757	133.038608
228	オートバックス今治店	今治地区	機械器具小売業	愛媛県今治市小泉5-1-25	0898-33-3166	34.048804	132.984006
229	オートパル南	今治地区	機械器具小売業	愛媛県今治市町谷甲76	0898-43-6677		
230	小沢自動車整備工場	今治地区	機械器具小売業	愛媛県今治市阿方甲424	0898-22-5053		
231	カモザキデンキ	今治地区	機械器具小売業	愛媛県今治市別名188-3	0898-32-8710	34.043244	132.977508
232	（有）ギガテック　システムズ	今治地区	機械器具小売業	愛媛県今治市東村1-1-25	0898-36-6247	34.041813	133.027281
233	キムラデンキ	今治地区	機械器具小売業	愛媛県今治市波止浜11-59	0898-41-6888	34.100491	132.970989
234	クボタオートサービス	今治地区	機械器具小売業	愛媛県今治市松木392-9	0898-48-7538	34.034574	133.004608
235	ケーズデンキ今治店	今治地区	機械器具小売業	愛媛県今治市中寺270-1	0898-25-6688	34.037715	132.995071
236	サイクルベースあさひ　今治店	今治地区	機械器具小売業	愛媛県今治市北高下町1-1-28	0898-22-2701		
237	四国ガスショップツチヤ	今治地区	機械器具小売業	愛媛県今治市別宮町4-5-1	0898-22-1617	34.06986	132.993236
238	四国ガスショップムラセ	今治地区	機械器具小売業	愛媛県今治市南日吉町1-2-51	0898-33-0179	34.05815	132.994525
239	自転車屋　Ｂｉｃｙｃｌｅ　Ｔｉｍｅ	今治地区	機械器具小売業	愛媛県今治市栄町1-1-12 東ビル1階	0898-52-9377	34.067819	133.000902
240	タイヤ館今治	今治地区	機械器具小売業	愛媛県今治市別名163-1	0898-33-7736	34.043752	132.978708
241	株式会社タイヤサービスＪ	今治地区	機械器具小売業	愛媛県今治市片山3-9-35	0898-34-5775	34.050984	132.983562
242	ティーティー	今治地区	機械器具小売業	愛媛県今治市東門町6-1-1	0898-33-4443	34.059888	133.014613
243	トヨタカローラ愛媛　今治店	今治地区	機械器具小売業	愛媛県今治市北高下町2-2-41	0898-23-3568	34.05177	133.012458
244	日産プリンス愛媛販売株式会社　今治支店	今治地区	機械器具小売業	愛媛県今治市郷桜井4-2-58	0898-48-1717	34.015489	133.038519
245	ネッツトヨタ愛媛株式会社　Ｊ．Ｓｐｏｔ今治	今治地区	機械器具小売業	愛媛県今治市北高下町3-2-7	0898-33-7070	34.050792	133.011894
246	ネッツトヨタ瀬戸内（株）　今治店	今治地区	機械器具小売業	愛媛県今治市郷新屋敷町3-4-5	0898-33-8888	34.041687	133.001062
247	パルテ電総㈱	今治地区	機械器具小売業	愛媛県今治市五十嵐甲107-9	0898-32-1962		
248	フォルクスワーゲン今治	今治地区	機械器具小売業	愛媛県今治市喜田村2-4-50	0898-47-1670	34.046201	133.02014
249	ベスト電器波止浜店	今治地区	機械器具小売業	愛媛県今治市地堀1-2-20	0898-41-9165	34.104799	132.965301
250	宮川祥工業所	今治地区	機械器具小売業	愛媛県今治市波止浜11-121	0898-41-5005	34.100599	132.969731
251	渡部電化	今治地区	機械器具小売業	愛媛県今治市延喜甲764-4	0898-22-3818	34.065414	132.955698
252	青井商会	今治地区	その他の小売業	愛媛県今治市中日吉町3-1-28	0898-23-2355	34.058133	132.988998
253	あおば薬局	今治地区	その他の小売業	愛媛県今治市立花町3-7-30	0898-34-3313	34.049899	132.998368
254	朝日エナジーグラン今治	今治地区	その他の小売業	愛媛県今治市東門町5-15-23	0898-24-6401	34.06058	133.016144
255	安心堂	今治地区	その他の小売業	愛媛県今治市常盤町5-1-16	0898-35-2698	34.061569	132.995161
256	石川石油店	今治地区	その他の小売業	愛媛県今治市郷本町1-1-22	0898-22-3543	34.04796	132.99571
257	今井石油（有）	今治地区	その他の小売業	愛媛県今治市近見町1-2-7	0898-23-0079	34.08651	132.988471
258	今治けんこう薬局	今治地区	その他の小売業	愛媛県今治市常盤町5-3-39	0898-32-6130	34.06058	132.994006
259	今治みかん薬局	今治地区	その他の小売業	愛媛県今治市喜田村7-2-37	0898-52-8866	34.043715	133.020584
260	伊予桜井漆器会館	今治地区	その他の小売業	愛媛県今治市長沢甲340-1	0898-48-0418		
261	インテリアハウス　ナガイ	今治地区	その他の小売業	愛媛県今治市共栄町1-1-7	0898-22-0815	34.067261	133.000007
262	ヴィレッジヴァンガード　フジグラン今治店	今治地区	その他の小売業	愛媛県今治市東門町5-13-1	0898-25-8768	34.061369	133.014766
263	うつわ花	今治地区	その他の小売業	愛媛県今治市常盤町2-3-1	0898-31-8791	34.067761	133.002515
264	エステール　イオンモール今治新都市	今治地区	その他の小売業	愛媛県今治市にぎわい広場1-1	0898-35-5121	34.042547	132.961301
265	愛媛県教科図書マスヤ店	今治地区	その他の小売業	愛媛県今治市常盤町3-6-1	0898-22-0248	34.066306	132.999974
266	小川武道具店	今治地区	その他の小売業	愛媛県今治市中日吉町2-7-17	0898-33-2241	34.060172	132.990023
267	オズ	今治地区	その他の小売業	愛媛県今治市桜井2-6-7	0898-35-1009	34.021996	133.037516
268	越智今治ＬＰガスセンター	今治地区	その他の小売業	愛媛県今治市天保山町2-5-2	0898-32-1270	34.065351	133.011989
269	オチ時計店	今治地区	その他の小売業	愛媛県今治市本町3-2-26	0898-23-1818	34.070822	133.001226
270	オフハウス今治片山店	今治地区	その他の小売業	愛媛県今治市片山3-10-33	0898-34-3060	34.050112	132.982987
271	香川薬局	今治地区	その他の小売業	愛媛県今治市常盤町7-1-35	0898-22-2499	34.056575	132.989603
272	柿原石油店	今治地区	その他の小売業	愛媛県今治市南鳥生町3-1-10	0898-22-5007	34.053058	133.009675
273	笠崎商店	今治地区	その他の小売業	愛媛県今治市中浜町3-1-29	0898-22-0516	34.070647	133.002596
274	キクマヤ	今治地区	その他の小売業	愛媛県今治市波止浜4-5-26	0898-41-9166		
275	キナミスポーツ	今治地区	その他の小売業	愛媛県今治市常盤町5-2-38	0898-22-1256	34.061447	132.995067
276	キハラ漆器	今治地区	その他の小売業	愛媛県今治市本町2-2-8	0898-22-0782	34.069372	133.002407
277	くすりのレデイ　阿方店	今治地区	その他の小売業	愛媛県今治市阿方甲371-2	0898-34-3655	34.061042	132.96464
278	くすりのレデイ　今治衣干店	今治地区	その他の小売業	愛媛県今治市衣干町4-3-30	0898-34-8500	34.045565	133.013558
279	くすりのレデイ　今治国分店	今治地区	その他の小売業	愛媛県今治市登畑字釜屋敷甲75-1	0898-47-5771		
280	くすりのレデイ　今治中央店	今治地区	その他の小売業	愛媛県今治市旭町3-2-9	0898-33-3719	34.061176	133.001532
281	くすりのレデイ　馬越店	今治地区	その他の小売業	愛媛県今治市馬越町4-3-41	0898-33-7300	34.053623	132.983976
282	くすりのレデイ　大新田店	今治地区	その他の小売業	愛媛県今治市大新田町5-6-48	0898-35-5155		
283	くすりのレデイ　喜田村店	今治地区	その他の小売業	愛媛県今治市喜田村1-5-5	0898-52-7155	34.045387	133.020157
284	くすりのレデイ　高橋店	今治地区	その他の小売業	愛媛県今治市高橋甲446-1	0898-35-2122		
285	くすりのレデイ　波止浜店	今治地区	その他の小売業	愛媛県今治市内堀1-1-8	0898-35-2040	34.102999	132.967648
286	くすりのレデイ　松木店	今治地区	その他の小売業	愛媛県今治市松木字一寸田39-1	0898-47-2770		
287	くすりのレデイ　南鳥生店	今治地区	その他の小売業	愛媛県今治市南鳥生町4-2-33	0898-25-7621	34.05025	133.007703
288	くすりのレデイ　南宝来店	今治地区	その他の小売業	愛媛県今治市南宝来町1-8-3	0898-52-7320		
289	久保釣具店	今治地区	その他の小売業	愛媛県今治市恵美須町1-1-4	0898-23-8181	34.068145	133.004509
290	クレアーズ　イオンモール今治新都市	今治地区	その他の小売業	愛媛県今治市にぎわい広場1-1	0898-22-3345	34.042547	132.961301
291	月光カメラ店	今治地区	その他の小売業	愛媛県今治市共栄町3-2-36	0898-22-3086	34.06878	132.99953
292	コスメティクスモリタ	今治地区	その他の小売業	愛媛県今治市小泉4-11-6	0898-24-2232	34.047007	132.979842
293	小林建窓工業	今治地区	その他の小売業	愛媛県今治市延喜甲250-1	0898-31-5884	34.063814	132.95872
294	㈱コメリ　ハード＆グリーン高橋店	今治地区	その他の小売業	愛媛県今治市高橋甲460	0898-23-5030		
295	㈱コメリ　ハード＆グリーン波止浜店	今治地区	その他の小売業	愛媛県今治市波止浜112-2	0898-43-7550	34.097991	132.971086
296	近藤商店	今治地区	その他の小売業	愛媛県今治市常盤町6-5-15	0898-22-4425	34.057447	132.990623
297	ザ・クロックハウス　イオンモール今治新都市	今治地区	その他の小売業	愛媛県今治市にぎわい広場1-1	0898-25-7899	34.042547	132.961301
298	ザ・クロックハウス　フジグラン今治店	今治地区	その他の小売業	愛媛県今治市東門町5-13-1	0898-34-1441	34.061369	133.014766
299	ササキ時計店	今治地区	その他の小売業	愛媛県今治市常盤町2-6-1	0898-32-2126	34.06742	133.001932
300	サンキメガネ今治店	今治地区	その他の小売業	愛媛県今治市常盤町3-4-1	0898-33-3022	34.066417	133.000821
301	サンセイ石油	今治地区	その他の小売業	愛媛県今治市長沢甲1252-1	0898-48-0158	34.008649	133.039024
302	サン薬局	今治地区	その他の小売業	愛媛県今治市常盤町8-3-6	0898-23-1302	34.053345	132.985429
303	紫水化粧品店	今治地区	その他の小売業	愛媛県今治市黄金町1-2-3	0898-33-1614	34.066928	133.002121
304	清水屋	今治地区	その他の小売業	愛媛県今治市旭町1-2-14	0898-22-1603	34.06522	132.999691
305	シャディ　サラダ館別宮店	今治地区	その他の小売業	愛媛県今治市別宮町8-3-46	0898-31-2077	34.074107	132.98945
306	ジュエリービュー　イオンモール今治新都市	今治地区	その他の小売業	愛媛県今治市にぎわい広場1-1	0898-35-3831	34.042547	132.961301
307	ジュエリービュー　フジグラン今治店	今治地区	その他の小売業	愛媛県今治市東門町5-13-1	0898-34-1450	34.061369	133.014766
308	ジョイスクエア	今治地区	その他の小売業	愛媛県今治市北日吉町1-12-15	0898-33-0113	34.066246	132.991139
309	上州屋　今治店　ワールドプラザ	今治地区	その他の小売業	愛媛県今治市東村1-2-30	0898-47-2408	34.043316	133.02647
310	（株）白石石油店	今治地区	その他の小売業	愛媛県今治市拝志3-12	0898-48-5653	34.042382	133.025428
311	ＪＩＮＳ　イオンモール今治新都市	今治地区	その他の小売業	愛媛県今治市にぎわい広場1-1	0898-22-5115	34.042547	132.961301
312	スイス堂	今治地区	その他の小売業	愛媛県今治市常盤町6-7-9	0898-22-6697	34.058267	132.990937
313	スーパードラッグひまわり中寺店	今治地区	その他の小売業	愛媛県今治市中寺961-1	0898-35-4500	34.042547	132.98878
314	スーパードラッグひまわり波止浜店	今治地区	その他の小売業	愛媛県今治市内堀2-1-13	0898-35-2620		
315	スジヤ	今治地区	その他の小売業	愛媛県今治市本町3-2-2	0898-32-4444	34.070142	133.001868
316	スペース田中　イオンモール今治新都市	今治地区	その他の小売業	愛媛県今治市にぎわい広場1-1	0898-33-2278	34.042547	132.961301
317	スペースタナカ　フジグラン今治店	今治地区	その他の小売業	愛媛県今治市東門町5-13-1	0898-34-1442	34.061369	133.014766
318	スポーツオーソリティ　イオンモール今治新都市	今治地区	その他の小売業	愛媛県今治市にぎわい広場1-1	0898-23-5130	34.042547	132.961301
319	隅洲時計商会	今治地区	その他の小売業	愛媛県今治市南大門町4-2-3	0898-23-3445	34.068324	132.992619
320	セブンズ　イオンモール今治新都市	今治地区	その他の小売業	愛媛県今治市にぎわい広場1-1	0898-52-7131	34.042547	132.961301
321	ソレイユ　イオンモール今治新都市	今治地区	その他の小売業	愛媛県今治市にぎわい広場1-1	0898-25-1020	34.042547	132.961301
322	ダイイチコンタクト・メガネ	今治地区	その他の小売業	愛媛県今治市北日吉町1-10-18	0898-23-2354	34.064813	132.989693
323	ダイソー　フジグラン今治店	今治地区	その他の小売業	愛媛県今治市東門町5-13-1	0898-34-1773	34.061369	133.014766
324	大和みやげものセンター	今治地区	その他の小売業	愛媛県今治市常盤町1-1-19	0898-22-0164	34.069031	133.00504
325	髙橋木工	今治地区	その他の小売業	愛媛県今治市別名526-1	0898-32-6468	34.044022	132.973642
326	田中仏光堂	今治地区	その他の小売業	愛媛県今治市旭町4-3-10	0898-22-4381	34.058804	133.004157
327	たんぽぽ薬局　今治喜田村店	今治地区	その他の小売業	愛媛県今治市喜田村7-2-41 1階	0898-47-6881	34.043885	133.020934
328	チェルシーニューヨーク　イオンモール今治新都市	今治地区	その他の小売業	愛媛県今治市にぎわい広場1-1	0898-35-5378	34.042547	132.961301
329	中央コンタクト　イオンモール今治新都市	今治地区	その他の小売業	愛媛県今治市にぎわい広場1-1	0898-31-2244	34.042547	132.961301
330	月原石油店	今治地区	その他の小売業	愛媛県今治市桜井2-6-12	0898-48-0400	34.021535	133.037316
331	ＤＣＭダイキ今治店	今治地区	その他の小売業	愛媛県今治市小泉3-2-8	0898-31-5688	34.049024	132.980567
332	ＤＣＭダイキ喜田村店	今治地区	その他の小売業	愛媛県今治市喜田村3-2-1	0898-47-5010	34.049881	133.020115
333	ＤＣＭダイキ近見店	今治地区	その他の小売業	愛媛県今治市大新田町5-4-45	0898-25-2345	34.081824	132.989821
334	陶器のにしはら	今治地区	その他の小売業	愛媛県今治市常盤町1-6-18	0898-22-0604	34.06822	133.003282
335	東石　喜田村ＳＳ	今治地区	その他の小売業	愛媛県今治市喜田村6-2-26	0898-48-1533	34.043513	133.023962
336	東石　サンウェーＳＳ	今治地区	その他の小売業	愛媛県今治市片山2-7-8	0898-23-2929	34.051831	132.980265
337	東石　内港SS	今治地区	その他の小売業	愛媛県今治市恵美須町1-1-10	0898-23-3721	34.067881	133.004718
338	東冷㈱今治港給油所	今治地区	その他の小売業	愛媛県今治市恵美須町3-1-39	0898-23-1066	34.065931	133.007639
339	ドクターエア　イオンモール今治新都市	今治地区	その他の小売業	愛媛県今治市にぎわい広場1-1	0898-52-7205	34.042547	132.961301
340	富田営農センター	今治地区	その他の小売業	愛媛県今治市宮ヶ崎甲218	0898-48-8790	34.019829	133.012771
341	ドラッグコスモス今治阿方店	今治地区	その他の小売業	愛媛県今治市阿方甲504-1	0898-33-8156	34.062597	132.964232
342	ドラッグコスモス今治石井店	今治地区	その他の小売業	愛媛県今治市石井町1-4-18	0898-33-7266	34.073899	132.986817
343	ドラッグコスモス北日吉店	今治地区	その他の小売業	愛媛県今治市北日吉町3-5-51	0898-33-7880	34.06031	132.983216
344	ドラッグコスモス喜田村店	今治地区	その他の小売業	愛媛県今治市喜田村2-309-1	0898-36-6175	34.048129	133.018857
345	ドラッグコスモス黄金店	今治地区	その他の小売業	愛媛県今治市黄金町2-1-3	0898-34-5670	34.065159	133.004007
346	ドラッグコスモス桜井店	今治地区	その他の小売業	愛媛県今治市古国分1-1-40	0898-36-6625	34.036078	133.034161
347	ドラッグコスモス日高店	今治地区	その他の小売業	愛媛県今治市別名375	0898-31-6016	34.044502	132.977894
348	㈱仲渡石油	今治地区	その他の小売業	愛媛県今治市大浜町1-4-1	0898-22-2796	34.097692	132.98451
349	ニイダ時計店	今治地区	その他の小売業	愛媛県今治市常盤町3-5-11	0898-22-2456	34.065733	132.999691
350	二宮勉強堂	今治地区	その他の小売業	愛媛県今治市常盤町5-3-41	0898-22-0639	34.060689	132.994217
351	人形と鯉のぼりの村上	今治地区	その他の小売業	愛媛県今治市北宝来町3-3-19	0898-31-8814	34.067597	132.99237
352	人形のおおみちや	今治地区	その他の小売業	愛媛県今治市米屋町2-1-16	0898-31-0415	34.068903	133.001593
353	猫びより	今治地区	その他の小売業	愛媛県今治市北鳥生町2-4-26三栄ビル2F	080-8634-3448	34.05408	133.009242
354	ノエビア今治美恵	今治地区	その他の小売業	愛媛県今治市常盤町6-6-1	0898-23-4499	34.058106	132.99067
355	乃万営農生活センター	今治地区	その他の小売業	愛媛県今治市阿方甲246-1	0898-23-8443	34.062792	132.967204
356	乃万給油所	今治地区	その他の小売業	愛媛県今治市阿方甲246-1	0898-32-1236	34.062792	132.967204
357	ハードオフ今治片山店	今治地区	その他の小売業	愛媛県今治市片山3-10-33	0898-32-4270	34.050112	132.982987
358	花かご館	今治地区	その他の小売業	愛媛県今治市天保山町2-5-2	0898-34-6527	34.065351	133.011989
359	花屋百太郎　フジグラン今治店	今治地区	その他の小売業	愛媛県今治市東門町5-13-1	0898-34-1751	34.061369	133.014766
360	原田書房	今治地区	その他の小売業	愛媛県今治市常盤町5-6-16	0898-23-3944	34.05998	132.992878
361	明屋書店今治本店	今治地区	その他の小売業	愛媛県今治市片山2-6-22	0898-25-2001	34.05194	132.980748
362	明屋書店喜田村店	今治地区	その他の小売業	愛媛県今治市東村1-1-30	0898-47-3311	34.042169	133.026881
363	明屋書店別宮店	今治地区	その他の小売業	愛媛県今治市別宮町7-27-1	0898-24-2255	34.07418	132.991311
364	パワーストーンショップ　アリス＆アン	今治地区	その他の小売業	愛媛県今治市北日吉町1-17-11	0898-31-0579	34.065194	132.991823
365	ひごペットフレンドリー　イオンモール今治新都市	今治地区	その他の小売業	愛媛県今治市にぎわい広場1-1	0898-34-3050	34.042547	132.961301
366	ヒマラヤ今治店	今治地区	その他の小売業	愛媛県今治市南高下町1-4-22	0898-34-8601	34.052659	133.016074
367	ファーマシィ薬局今治	今治地区	その他の小売業	愛媛県今治市喜田村7-2-42	0898-36-6011	34.044043	133.020929
368	ファイテン　ケアステーション今治店	今治地区	その他の小売業	愛媛県今治市衣干町3-145-1	0898-33-9400	34.048792	133.016188
369	ファンシーグッズ　ピンク	今治地区	その他の小売業	愛媛県今治市常盤町5-2-31	0898-31-3125	34.060989	132.994489
370	フィッシング今治	今治地区	その他の小売業	愛媛県今治市阿方甲240-12	0898-32-6112		
371	福屋金物店	今治地区	その他の小売業	愛媛県今治市南大門町1-6-13	0898-22-1140	34.0656	132.995955
372	ブックオフ今治片山店	今治地区	その他の小売業	愛媛県今治市片山3-10-33	0898-31-6580	34.050112	132.982987
373	文化堂薬局	今治地区	その他の小売業	愛媛県今治市喜田村6-3-33	0898-48-3158	34.043743	133.023492
374	文化堂薬局高市店	今治地区	その他の小売業	愛媛県今治市高市甲21-2	0898-47-0207		
375	ペットワールドアミーゴ今治ワールドプラザ店	今治地区	その他の小売業	愛媛県今治市東村1-14-2	0898-36-6520	34.042283	133.028331
376	ホビーゾーン　イオンモール今治新都市	今治地区	その他の小売業	愛媛県今治市にぎわい広場1-1	0898-55-8124	34.042547	132.961301
377	ボンマーケット　今治店	今治地区	その他の小売業	愛媛県今治市衣干町4-5-5	0898-34-4050	34.045684	133.011677
378	マック今治店	今治地区	その他の小売業	愛媛県今治市郷本町1-3-52	0898-33-3433	34.048624	132.99686
379	マック今治別宮店	今治地区	その他の小売業	愛媛県今治市別宮町7-1-19	0898-33-7255	34.074799	132.991472
380	株式会社　丸石金物	今治地区	その他の小売業	愛媛県今治市大正町5-2-3	0898-22-5242	34.071927	132.9943
381	丸越時計店	今治地区	その他の小売業	愛媛県今治市常盤町4-3-4	0898-22-2710	34.065156	132.998383
382	三松化粧品店	今治地区	その他の小売業	愛媛県今治市共栄町3-3-17	0898-22-2699	34.069578	132.999205
383	宮本時計店	今治地区	その他の小売業	愛媛県今治市旭町1-2-7	0898-22-2061	34.064936	132.999955
384	宮脇書店　イオンモール今治新都市	今治地区	その他の小売業	愛媛県今治市にぎわい広場1-1	0898-35-4444	34.042547	132.961301
385	宮脇書店　今治本店	今治地区	その他の小売業	愛媛県今治市阿方甲371-2	0898-25-1180	34.061042	132.96464
386	宮脇書店　フジグラン今治店	今治地区	その他の小売業	愛媛県今治市東門町5-13-1	0898-35-2495	34.061369	133.014766
387	宗行金物店	今治地区	その他の小売業	愛媛県今治市旭町3-4-8	0898-22-8600	34.060543	133.003379
388	名印社	今治地区	その他の小売業	愛媛県今治市常盤町5-11-3	0898-31-0654	34.06203	132.995189
389	メガネ・コンタクト　三愛	今治地区	その他の小売業	愛媛県今治市北宝来町2-3-1	0898-24-1122	34.065291	132.994069
390	眼鏡市場　今治北日吉店	今治地区	その他の小売業	愛媛県今治市北日吉町3-5-27	0898-34-3578	34.060124	132.983324
391	眼鏡市場　今治店	今治地区	その他の小売業	愛媛県今治市松木287-1	0898-43-6568	34.031652	133.0028
392	メガネのアオノ　今治店	今治地区	その他の小売業	愛媛県今治市常盤町3-6-16	0898-33-2031	34.065894	132.999377
393	メガネの田中　イオンモール今治新都市	今治地区	その他の小売業	愛媛県今治市にぎわい広場1-1	0898-55-8670	34.042547	132.961301
394	メガネのタナカ　フジグラン今治店	今治地区	その他の小売業	愛媛県今治市東門町5-13-1	0898-33-7110	34.061369	133.014766
395	メガネの三城　片山バイパス店	今治地区	その他の小売業	愛媛県今治市片山2-5-23	0898-25-2585	34.050865	132.981195
396	メディコ２１（薬・雑貨）　フジグラン今治店	今治地区	その他の小売業	愛媛県今治市東門町5-13-1	0898-34-1460	34.061369	133.014766
397	メディコ２１（化粧品）　フジグラン今治店	今治地区	その他の小売業	愛媛県今治市東門町5-13-1	0898-34-1461	34.061369	133.014766
398	矢野タンス店	今治地区	その他の小売業	愛媛県今治市栄町4-1-7	0898-22-6060	34.070247	132.998957
399	山善　大新田給油所	今治地区	その他の小売業	愛媛県今治市大新田町5-7-34	0898-22-7034	34.080379	132.991271
400	山田化粧品店	今治地区	その他の小売業	愛媛県今治市八町西1-1-15	0898-22-2479	34.048449	132.990947
401	Ｙｏｇｉｂｏ　Ｓｔｏｒｅ　イオンモール今治新都市	今治地区	その他の小売業	愛媛県今治市にぎわい広場1-1	0898-52-9800	34.042547	132.961301
402	ヨシイ時計店	今治地区	その他の小売業	愛媛県今治市常盤町3-6-8	0898-23-3324	34.066067	132.999749
403	吉源石油　アイビーロードのま給油所	今治地区	その他の小売業	愛媛県今治市阿方甲329-1	0898-25-3733		
404	吉源石油　今治給油所	今治地区	その他の小売業	愛媛県今治市片原町3-143-2	0898-32-0152	34.072022	133.00264
405	吉源石油　祇園給油所	今治地区	その他の小売業	愛媛県今治市祇園町1-1-56	0898-24-2005	34.055377	133.007162
406	吉源石油　常盤町給油所	今治地区	その他の小売業	愛媛県今治市常盤町5-6-1	0898-24-2006	34.060978	132.993895
407	リビンズカタヤマ今治店	今治地区	その他の小売業	愛媛県今治市にぎわい広場2-1	0898-35-4936	34.044891	132.959831
408	レデイ薬局　今治東店	今治地区	その他の小売業	愛媛県今治市東村5-9-33	0898-47-4999	34.038027	133.021654
409	レデイ薬局　北高下店	今治地区	その他の小売業	愛媛県今治市北高下町2-1-3	0898-35-3227	34.05265	133.011205
410	レデイ薬局　喜田村調剤	今治地区	その他の小売業	愛媛県今治市喜田村1-5-5	0898-36-6510	34.045387	133.020157
411	レデイ薬局　近見店	今治地区	その他の小売業	愛媛県今治市近見町2丁目甲32-1	0898-34-0572		
412	レデイ薬局　波止浜調剤	今治地区	その他の小売業	愛媛県今治市内堀1-1-8	0898-36-5180	34.102999	132.967648
413	わいわい薬局	今治地区	その他の小売業	愛媛県今治市南宝来町2-7-2	0898-52-8686	34.059059	133.001643
414	わたなべ衣裳店	今治地区	その他の小売業	愛媛県今治市本町2-2-1	0898-22-1999	34.069269	133.002568
415	㈲渡辺峰松堂薬局	今治地区	その他の小売業	愛媛県今治市常盤町3-6-7	0898-23-0821	34.066089	132.999791
416	ｏｎｅ’ｓ　ｔｅｒｒａｃｅ　イオンモール今治新都市	今治地区	その他の小売業	愛媛県今治市にぎわい広場1-1	0898-52-3602	34.042547	132.961301
417	今治アーバンホテル	今治地区	宿泊業	愛媛県今治市北宝来町1-5-28	0898-22-5311	34.064464	132.995133
418	今治国際ホテル	今治地区	宿泊業	愛媛県今治市旭町2-3-4	0898-36-1111	34.062131	133.000574
419	今治湯ノ浦ハイツ	今治地区	宿泊業	愛媛県今治市湯ノ浦23	0898-48-2000	33.996816	133.055315
420	ケーオーホテル	今治地区	宿泊業	愛媛県今治市湯ノ浦15	0898-48-1911	33.996364	133.052237
421	第一ホテル	今治地区	宿泊業	愛媛県今治市南大門町1-6-11	0898-22-1320	34.065519	132.995972
422	ア・カリンベル	今治地区	飲食店	愛媛県今治市北日吉町1-15-2	0898-33-0036	34.065308	132.991492
423	いきなりステーキ今治店	今治地区	飲食店	愛媛県今治市北高下町3-2-28	0898-35-5092	34.050934	133.011103
424	一番鳥	今治地区	飲食店	愛媛県今治市中堀1-7-18	0898-41-6729	34.100302	132.96477
425	伊予水軍	今治地区	飲食店	愛媛県今治市湊町2-6-37	0898-32-2000	34.092901	132.989562
426	伊予のとり姫　イオンモール今治新都市	今治地区	飲食店	愛媛県今治市にぎわい広場1-1	0898-55-8204	34.042547	132.961301
427	魚河岸ごはん	今治地区	飲食店	愛媛県今治市中寺261-1	0898-35-0350	34.036537	132.996734
428	お好焼　ろくちゃん	今治地区	飲食店	愛媛県今治市小泉3-12-30	0898-22-4546	34.050879	132.980342
429	おひつごはん四六時中　イオンモール今治新都市	今治地区	飲食店	愛媛県今治市にぎわい広場1-1	0898-35-3106	34.042547	132.961301
430	おむらいす亭　イオンモール今治新都市	今治地区	飲食店	愛媛県今治市にぎわい広場1-1	0898-35-5906	34.042547	132.961301
431	オリエント今治店	今治地区	飲食店	愛媛県今治市旭町1-5-12	0898-31-9119	34.06432	133.00048
432	オリエント波止浜店	今治地区	飲食店	愛媛県今治市地堀1-3-10	0898-41-7256	34.105235	132.965545
433	おんまく寿司ワールドプラザ店	今治地区	飲食店	愛媛県今治市東村1-14-2	0898-36-6550	34.042283	133.028331
434	かつれつ亭　今治店	今治地区	飲食店	愛媛県今治市八町西3-5-30	0898-33-2780	34.043994	132.989072
435	かねと食堂	今治地区	飲食店	愛媛県今治市室屋町1-2-16	0898-22-1997	34.068181	133.00159
436	cafebar Senho	今治地区	飲食店	愛媛県今治市旭町4-2-3	0898-25-4718	34.059515	133.003532
437	珈琲浪漫パイプのけむり	今治地区	飲食店	愛媛県今治市枝堀町1-5-11	0898-32-0777	34.061676	133.009367
438	歌舞伎寿司	今治地区	飲食店	愛媛県今治市栄町1-1-9	0898-22-3629	34.067775	133.000979
439	鎌倉パスタ　イオンモール今治新都市	今治地区	飲食店	愛媛県今治市にぎわい広場1-1	0898-25-7309	34.042547	132.961301
440	カレーハウスＣｏＣｏ壱番屋　今治喜田村店	今治地区	飲食店	愛媛県今治市喜田村1-296-1	0898-48-8750	34.047968	133.017413
441	カレーハウスＣｏＣｏ壱番屋　今治日吉店	今治地区	飲食店	愛媛県今治市北日吉町1-10-18	0898-34-8820	34.064813	132.989693
442	がんば亭　今治店	今治地区	飲食店	愛媛県今治市中寺976-1	0898-25-7547	34.042533	132.98958
443	㈲ぎやまん亭	今治地区	飲食店	愛媛県今治市北鳥生町1-3-35	0898-22-1681	34.056783	133.014319
444	グルメ	今治地区	飲食店	愛媛県今治市上徳甲235-5	0898-47-4000		
445	コーヒースタンドターミナル０１	今治地区	飲食店	愛媛県今治市片原町1-100-3	0898-35-2139	34.069734	133.005112
446	ココス今治鳥生店	今治地区	飲食店	愛媛県今治市南鳥生町3-1-7	0898-35-4835	34.05338	133.009256
447	サイサイカフェ	今治地区	飲食店	愛媛県今治市中寺279-1	0898-35-3671	34.038629	132.993632
448	彩菜食堂	今治地区	飲食店	愛媛県今治市中寺279-1	0898-35-3861	34.038629	132.993632
449	讃岐うどん　つるべぇー　ワールドプラザ	今治地区	飲食店	愛媛県今治市東村1-14-2	0898-47-2265	34.042283	133.028331
450	サンマルクカフェ　イオンモール今治新都市	今治地区	飲食店	愛媛県今治市にぎわい広場1-1	0898-25-3309	34.042547	132.961301
451	ジャック　イン　ザ　ドーナツ　イオンモール今治新都市	今治地区	飲食店	愛媛県今治市にぎわい広場1-1	0898-55-8896	34.042547	132.961301
452	しゃぶ菜　イオンモール今治新都市	今治地区	飲食店	愛媛県今治市にぎわい広場1-1	0898-34-7030	34.042547	132.961301
453	じゃんじゃか　フジグラン今治店	今治地区	飲食店	愛媛県今治市東門町5-13-1	0898-33-1130	34.061369	133.014766
454	酔虎伝　今治喜田村店	今治地区	飲食店	愛媛県今治市東村1-14-2	0898-48-4008	34.042283	133.028331
455	スターバックスコーヒー　イオンモール今治新都市	今治地区	飲食店	愛媛県今治市にぎわい広場1-1	0898-25-2275	34.042547	132.961301
456	炭火やきとり　鳥や　今治鳥生店	今治地区	飲食店	愛媛県今治市南鳥生町2-3-47	0898-33-3807	34.053333	133.010775
457	瀬戸内ちゃんぽん　菜めん	今治地区	飲食店	愛媛県今治市中寺957-6	0898-31-5561	34.042236	132.989583
458	たこ風船　イオンモール今治新都市	今治地区	飲食店	愛媛県今治市にぎわい広場1-1	0898-22-0322	34.042547	132.961301
459	馳走家　とり壱	今治地区	飲食店	愛媛県今治市横田町1-1-50	0898-34-7230	34.047498	133.008575
460	ちゃんぽん亭総本家　イオンモール今治新都市	今治地区	飲食店	愛媛県今治市にぎわい広場1-1	0898-35-5399	34.042547	132.961301
461	ティア　家族のテーブル	今治地区	飲食店	愛媛県今治市喜田村2-5-22	0898-48-1248	34.04571	133.020779
462	デザート王国　イオンモール今治新都市	今治地区	飲食店	愛媛県今治市にぎわい広場1-1	0898-34-7035	34.042547	132.961301
463	てっぱんらんど	今治地区	飲食店	愛媛県今治市別宮町7-1-18	0898-31-0329	34.07451	132.99118
464	トマト＆オニオン別宮店	今治地区	飲食店	愛媛県今治市別宮町5-204-1	0898-32-1170	34.072477	132.991508
465	トラットリア　イル　ソーレ	今治地区	飲食店	愛媛県今治市阿方甲218-3	0898-35-3033		
466	どんと　フジグラン今治店	今治地区	飲食店	愛媛県今治市東門町5-13-1	0898-34-1415	34.061369	133.014766
467	ナマステ食堂　イオンモール今治新都市	今治地区	飲食店	愛媛県今治市にぎわい広場1-1	0898-35-2808	34.042547	132.961301
468	根岸	今治地区	飲食店	愛媛県今治市共栄町4-3-6	0898-31-3116	34.070227	132.998696
469	白鳥	今治地区	飲食店	愛媛県今治市北宝来町1-2-6	0898-22-1636	34.06383	132.996116
470	はなまるうどん　イオンモール今治新都市	今治地区	飲食店	愛媛県今治市にぎわい広場1-1	0898-23-0870	34.042547	132.961301
471	ばり嗎　イオンモール今治新都市	今治地区	飲食店	愛媛県今治市にぎわい広場1-1	0898-35-2615	34.042547	132.961301
472	ビアテラスターミナル０２	今治地区	飲食店	愛媛県今治市片原町1-100-3	0898-35-2739	34.069734	133.005112
473	ピザハウスふじい　旭町店	今治地区	飲食店	愛媛県今治市旭町2-2-15	0898-31-1929	34.063062	133.001374
474	ピザハウスふじい　中浜店	今治地区	飲食店	愛媛県今治市中浜町2-1-12	0898-24-2300	34.070086	133.002926
475	ピトン	今治地区	飲食店	愛媛県今治市古国分2-3-21	0898-48-2453	34.031467	133.035733
476	フードコート　フジグラン今治店	今治地区	飲食店	愛媛県今治市東門町5-13-1	0898-34-1416	34.061369	133.014766
477	豚屋とん一　イオンモール今治新都市	今治地区	飲食店	愛媛県今治市にぎわい広場1-1	0898-22-8828	34.042547	132.961301
478	ペッパーランチ　イオンモール今治新都市	今治地区	飲食店	愛媛県今治市にぎわい広場1-1	0898-35-3029	34.042547	132.961301
479	ホルモン焼肉　忠	今治地区	飲食店	愛媛県今治市泉川町1-2-74	0898-32-0429		
480	ミスタードーナツ　フジグラン今治店	今治地区	飲食店	愛媛県今治市東門町5-13-1	0898-34-1422	34.061369	133.014766
481	メディア・ボム　フジグラン今治店	今治地区	飲食店	愛媛県今治市東門町5-13-1	0898-24-7371	34.061369	133.014766
482	ＭＯＧＡＭＩ　今治店	今治地区	飲食店	愛媛県今治市中寺239-2	0898-34-3322		
483	モスバーガー　イオンモール今治新都市	今治地区	飲食店	愛媛県今治市にぎわい広場1-1	0898-34-3456	34.042547	132.961301
484	モスバーガー今治バイパス店	今治地区	飲食店	愛媛県今治市松木368-1	0898-36-6700	34.032433	133.002806
485	やきとり物語	今治地区	飲食店	愛媛県今治市馬越町1-2-14	0898-23-0455	34.05397	132.984151
486	焼肉　大栄	今治地区	飲食店	愛媛県今治市松本町1-8-12	0898-25-7786	34.064167	133.000893
487	弥生寿司	今治地区	飲食店	愛媛県今治市松本町2-1-1	0898-31-3458	34.064387	133.002013
488	利鳳園	今治地区	飲食店	愛媛県今治市中堀4-5-21	0898-41-6160	34.100228	132.957003
489	利鳳園　中寺	今治地区	飲食店	愛媛県今治市中寺595-5	0898-23-8929	34.04035	132.99133
490	龍神丸　イオンモール今治新都市	今治地区	飲食店	愛媛県今治市にぎわい広場1-1	0898-55-8662	34.042547	132.961301
491	ＲＯＫＵＳＡＮ	今治地区	飲食店	愛媛県今治市黄金町1-5-2	0898-23-6363	34.066556	133.002238
492	ろく助　ワオ店	今治地区	飲食店	愛媛県今治市小泉3-12-30	0898-24-0335	34.050879	132.980342
493	京寿司　花背	今治地区	持ち帰り・配達飲食サービス業	愛媛県今治市常盤町5-2-31	0898-36-1097	34.060989	132.994489
494	ほっかほっか亭　喜田村店	今治地区	持ち帰り・配達飲食サービス業	愛媛県今治市喜田村2-1-44	0898-47-1700	34.047409	133.018657
495	ほっかほっか亭　球場前別宮店	今治地区	持ち帰り・配達飲食サービス業	愛媛県今治市別宮町7-1-19	0898-32-8327	34.074799	132.991472
496	ほっかほっか亭　立花店	今治地区	持ち帰り・配達飲食サービス業	愛媛県今治市郷本町1-2-17	0898-31-7974	34.048777	132.996752
497	ほっかほっか亭　常盤店	今治地区	持ち帰り・配達飲食サービス業	愛媛県今治市常盤町5-8-10	0898-23-6672	34.061233	132.994359
498	ほっかほっか亭　波止浜店	今治地区	持ち帰り・配達飲食サービス業	愛媛県今治市波止浜11-28	0898-43-1020	34.100402	132.969547
499	オンリーカラー９１９　フジ波止浜店	今治地区	洗濯・理容・美容・浴場業	愛媛県今治市内堀2-1-14	0898-43-7010		
500	ＣＵＴＣＬＵＢ　ＢＲＥＥＺＥ	今治地区	洗濯・理容・美容・浴場業	愛媛県今治市別宮町2-1-17	0898-31-7877	34.067003	132.996919
501	カットハウス志波	今治地区	洗濯・理容・美容・浴場業	愛媛県今治市大正町3-5-1	0898-22-4452	34.070102	132.996919
502	クリーニングドクター浅川店	今治地区	洗濯・理容・美容・浴場業	愛媛県今治市別宮町7-1-19	090-5719-8940	34.074799	132.991472
503	クリーニングドクター片山店	今治地区	洗濯・理容・美容・浴場業	愛媛県今治市片山2-1-10	090-5719-8946	34.052414	132.984468
504	クリーニングドクターきぬぼし店	今治地区	洗濯・理容・美容・浴場業	愛媛県今治市衣干町4-61-1	090-5719-8930	34.045768	133.012799
505	クリーニングドクター共栄店	今治地区	洗濯・理容・美容・浴場業	愛媛県今治市共栄町5-2-4	090-5719-8938		
506	クリーニングドクターコープ今治店	今治地区	洗濯・理容・美容・浴場業	愛媛県今治市馬越町4-9-5	090-5719-8943	34.056928	132.978957
507	クリーニングドクター立花店	今治地区	洗濯・理容・美容・浴場業	愛媛県今治市郷本町1-3-52	090-5719-8927	34.048624	132.99686
508	クリーニングドクター近見店	今治地区	洗濯・理容・美容・浴場業	愛媛県今治市鐘場町2-1-1	090-5719-8937	34.08331	132.990216
509	クリーニングドクター波止浜店	今治地区	洗濯・理容・美容・浴場業	愛媛県今治市波止浜11-28 ハッピープラザ内	090-5719-8939	34.100402	132.969547
510	クリーニングドクターハローズ今治店	今治地区	洗濯・理容・美容・浴場業	愛媛県今治市土橋町1-4-27	090-5719-8931	34.047642	133.006886
511	クリーニングドクターハローズ中寺店	今治地区	洗濯・理容・美容・浴場業	愛媛県今治市中寺978-1	090-5719-8945	34.042644	132.989455
512	クリーニングドクターフレッシュバリュー城東店	今治地区	洗濯・理容・美容・浴場業	愛媛県今治市枝堀町1-5-2	090-5719-8928	34.06156	133.009525
513	クリーニングドクターフレッシュバリュー高市店	今治地区	洗濯・理容・美容・浴場業	愛媛県今治市高市字頓田町甲788-7	090-5719-8936		
514	クリーニングドクターマルナカ桜井店	今治地区	洗濯・理容・美容・浴場業	愛媛県今治市東村南1-6-7	090-5719-8933	34.036089	133.03253
515	クリーニングドクターマルナカ松本店	今治地区	洗濯・理容・美容・浴場業	愛媛県今治市松本町5-1-1	090-5719-8929	34.058993	133.006581
516	クリーニングドクター四村店	今治地区	洗濯・理容・美容・浴場業	愛媛県今治市四村286-1	090-5719-8944	34.037701	132.979738
517	クリーニングドクターワールドプラザ店	今治地区	洗濯・理容・美容・浴場業	愛媛県今治市東村1-14-2 10号棟	090-5719-8932	34.042283	133.028331
518	サロン　ド　ミーナ	今治地区	洗濯・理容・美容・浴場業	愛媛県今治市末広町1-3-17	0898-33-0770	34.065928	133.001013
519	サロンド・ボーテami	今治地区	洗濯・理容・美容・浴場業	愛媛県今治市東村5-2-21	0120-23-5758	34.039969	133.022493
520	清水屋クリーニング　イオンモール今治新都市	今治地区	洗濯・理容・美容・浴場業	愛媛県今治市にぎわい広場1-1	0898-35-3613	34.042547	132.961301
521	シャン美容室　フジグラン今治店	今治地区	洗濯・理容・美容・浴場業	愛媛県今治市東門町5-13-1	0898-34-1456	34.061369	133.014766
522	Ｎａｉｌ　Ｃｈｉｃｋ　イオンモール今治新都市	今治地区	洗濯・理容・美容・浴場業	愛媛県今治市にぎわい広場1-1	0898-35-5103	34.042547	132.961301
523	美容室　ヴィクトリア	今治地区	洗濯・理容・美容・浴場業	愛媛県今治市立花町1-1-19	0898-32-8655	34.053499	132.997691
524	Feel　So　Nice！	今治地区	洗濯・理容・美容・浴場業	愛媛県今治市八町西4-3-27　オチ薬品ビル	0898-25-6405	34.042614	132.996101
525	ヘアーサロン　ジップ	今治地区	洗濯・理容・美容・浴場業	愛媛県今治市石井町3-3-32	0898-32-6348	34.082063	132.984738
526	ヘアーサロン美感	今治地区	洗濯・理容・美容・浴場業	愛媛県今治市旭町5-1-2	0898-23-5290	34.057565	133.00599
527	ヘアー　サロン　ヨシカワ	今治地区	洗濯・理容・美容・浴場業	愛媛県今治市蒼社町1-1-32	0898-23-7559	34.05709	132.998233
528	Ｈａｉｒ　ＨＥＡＬ’Ｓ	今治地区	洗濯・理容・美容・浴場業	愛媛県今治市北日吉町1-7-40	0898-34-3395	34.06381	132.987801
529	Hair make NICE	今治地区	洗濯・理容・美容・浴場業	愛媛県今治市郷桜井2丁目甲685-2	0898-47-3703		
530	ＨＡＩＲ　ＤＥＳＩＧＮ　hope	今治地区	洗濯・理容・美容・浴場業	愛媛県今治市常盤町5-7-10	0120-27-1114		
531	みなみクリーニング	今治地区	洗濯・理容・美容・浴場業	愛媛県今治市松木391-4	0898-47-3261	34.034596	133.004314
532	大和屋クリーニング　フジ今治店	今治地区	洗濯・理容・美容・浴場業	愛媛県今治市小泉4-5-1	0898-25-3035	34.047432	132.980739
533	湯ノ浦温泉四季の湯ビア工房	今治地区	洗濯・理容・美容・浴場業	愛媛県今治市湯ノ浦26	0898-48-0300	33.995233	133.054795
534	リラクゼーションスペース　ラフィネ　イオンモール今治新都市	今治地区	洗濯・理容・美容・浴場業	愛媛県今治市にぎわい広場1-1	0898-55-8921	34.042547	132.961301
535	ワシ屋クリーニング北日吉店	今治地区	洗濯・理容・美容・浴場業	愛媛県今治市北日吉町2-6-19	090-5719-8942	34.061954	132.986174
536	キッズ＆カジュアルスタジオやよい	今治地区	その他の生活関連サービス業	愛媛県今治市松本町2-2-1	0898-33-8410	34.063934	133.001646
537	こども写真城スタジオアリス　イオンモール今治新都市	今治地区	その他の生活関連サービス業	愛媛県今治市にぎわい広場1-1	0120-949-690	34.042547	132.961301
538	株式会社ザ・ドアーズ（ことぶきや）	今治地区	その他の生活関連サービス業	愛媛県今治市常盤町8-3-16	0898-23-0018	34.053553	132.984787
539	株式会社ザ・ドアーズ（ことぶきや）国際ホテル店	今治地区	その他の生活関連サービス業	愛媛県今治市旭町2-3-4国際ホテル	0898-36-1835	34.062131	133.000574
540	ＪＡおちいまばり　旅行センター　ＪＡおちいまばり　営農経済事業本部内	今治地区	その他の生活関連サービス業	愛媛県今治市阿方甲246-1	0898-34-1853	34.062792	132.967204
541	株式会社全観トラベルネットワーク　イオンモール今治新都市	今治地区	その他の生活関連サービス業	愛媛県今治市にぎわい広場1-1	0898-35-5891	34.042547	132.961301
542	ファッションリフォームセンター	今治地区	その他の生活関連サービス業	愛媛県今治市南宝来町2-7-11	0898-22-7800	34.058862	133.001521
543	フジトラベルサービス　フジグラン今治店	今治地区	その他の生活関連サービス業	愛媛県今治市東門町5-13-1	0898-25-9600	34.061369	133.014766
544	ママのリフォーム　フジグラン今治店	今治地区	その他の生活関連サービス業	愛媛県今治市東門町5-13-1	0898-34-1458	34.061369	133.014766
545	㈱ヤヨイ写真館	今治地区	その他の生活関連サービス業	愛媛県今治市松本町2-2-13	0898-31-5252	34.064045	133.001407
546	ルミエール越智今治	今治地区	その他の生活関連サービス業	愛媛県今治市天保山町2-5-2	0898-33-5580	34.065351	133.011989
547	カラオケ　アンジュ	今治地区	娯楽業	愛媛県今治市古国分3-2-54	0898-55-8114	34.028207	133.03706
548	桑名ボウル	今治地区	娯楽業	愛媛県今治市延喜甲198-1	0898-23-1707		
549	ユナイテッドシネマ　フジグラン今治店	今治地区	娯楽業	愛媛県今治市東門町5-13-1	0570-783-226	34.061369	133.014766
550	ワンダーボウル　フジグラン今治店	今治地区	娯楽業	愛媛県今治市東門町5-13-1	0898-34-1464	34.061369	133.014766
551	今治中央自動車教習所	今治地区	その他の教育・学習支援業	愛媛県今治市小泉5-11-21	0898-32-0125	34.046132	132.983361
552	医療法人　藤田医院	今治地区	医療業	愛媛県今治市桜井2-5-57	0898-47-1131	34.020913	133.037955
553	医療法人順天会放射線第一病院	今治地区	医療業	愛媛県今治市北日吉町1-10-50	0898-23-3358	34.064902	132.990265
554	元気堂　フジグラン今治店	今治地区	医療業	愛媛県今治市東門町5-13-1	0898-33-1003	34.061369	133.014766
555	広小路歯科医院	今治地区	医療業	愛媛県今治市共栄町1-3-6	0898-24-1212	34.067592	133.000529
556	まき歯科	今治地区	医療業	愛媛県今治市中寺342	0898-32-6480	34.036176	132.992846
557	もり指圧治療院	今治地区	医療業	愛媛県今治市大正町6-1-63	0898-22-3202	34.073094	132.994922
558	キッズケア　青い鳥	今治地区	社会保険・社会福祉・介護事業	愛媛県今治市東村5-9-37	0898-52-7077	34.038313	133.021395
559	済生会今治老人保健施設　希望の園	今治地区	社会保険・社会福祉・介護事業	愛媛県今治市喜田村7-1-6	0898-48-8800	34.044024	133.019965
560	株式会社　トーカイ　今治営業所	今治地区	社会保険・社会福祉・介護事業	愛媛県今治市東村南2-2-13	0898-43-5050	34.035192	133.029922
561	阿部自動車整備工場	今治地区	自動車整備業	愛媛県今治市国分4-1-23	0898-48-6162	34.025259	133.025853
562	新日本車輌整備㈱	今治地区	自動車整備業	愛媛県今治市古国分2-1-24	0898-48-6716	34.035261	133.033916
563	㈱せとうち整備今治	今治地区	自動車整備業	愛媛県今治市天保山町2-5-3	0898-23-8585	34.065123	133.011939
564	トモエ自動車	今治地区	自動車整備業	愛媛県今治市町谷甲683	0898-48-4460	34.011552	133.00823
565	村上自動車株式会社	今治地区	自動車整備業	愛媛県今治市矢田甲662-3	0898-22-3678	34.060331	132.971404
566	陸地部農機センター	今治地区	機械等修理業	愛媛県今治市阿方甲246-1	0898-32-2790	34.062792	132.967204
567	タオル美術館	朝倉地区	各種商品小売業	愛媛県今治市朝倉上甲2930	0898-56-1515		
568	上朝倉生活店舗	朝倉地区	飲食料品小売業	愛媛県今治市朝倉上甲798-1	0898-56-2005		
569	彩咲あさくら	朝倉地区	飲食料品小売業	愛媛県今治市朝倉下甲558-1	0898-56-1077		
570	ファミリーマート今治朝倉店	朝倉地区	飲食料品小売業	愛媛県今治市山口甲282	0898-56-2413	34.006242	133.00648
571	朝日エナジー㈲	朝倉地区	その他の小売業	愛媛県今治市古谷甲548-1	0898-56-3621		
572	Ａコープたまがわ	玉川地区	各種商品小売業	愛媛県今治市玉川町大野甲77-2	0898-55-4444		
573	玉川龍岡活性化センター（玉川湖畔の里）	玉川地区	飲食料品小売業	愛媛県今治市玉川町龍岡下乙18-1	0898-55-3092	33.992796	132.914286
574	ファミリーマート玉川町店	玉川地区	飲食料品小売業	愛媛県今治市玉川町大野字中ノ切甲126-1	0898-36-8220		
575	大河石油店	玉川地区	その他の小売業	愛媛県今治市玉川町長谷甲985-6	0898-55-2016	34.012625	132.937875
576	玉川営農生活センター	玉川地区	その他の小売業	愛媛県今治市玉川町大野甲152-1	0898-55-2252	34.022352	132.941863
577	オリエント玉川店	玉川地区	飲食店	愛媛県今治市玉川町法界寺甲30-17	0898-55-2222		
578	鈍川せせらぎ交流館	玉川地区	洗濯・理容・美容・浴場業	愛媛県今治市玉川町鈍川甲218-1	0898-55-4477		
579	Ａコープ波方店	波方地区	各種商品小売業	愛媛県今治市波方町樋口甲1670-1	0898-41-5389		
580	はぶや	波方地区	各種商品小売業	愛媛県今治市波方町波方甲2533-1	0898-41-9658		
581	うずの鼻コミュニケーションズ	波方地区	織物・衣服・身の回り品小売業	愛媛県今治市波方町養老甲819	0898-41-8033	34.105528	132.945493
582	小池食糧	波方地区	飲食料品小売業	愛媛県今治市波方町波方甲2299-4	0898-41-9228	34.121823	132.952792
583	ローソン波方樋口店	波方地区	飲食料品小売業	愛媛県今治市波方町樋口甲1663-4	0898-41-8773		
584	波方サイクル	波方地区	機械器具小売業	愛媛県今治市波方町樋口甲1371-10	0898-41-6755		
585	長谷部サイクル	波方地区	機械器具小売業	愛媛県今治市波方町波方甲1932-3	0898-41-7804		
586	ハマモト自動車	波方地区	機械器具小売業	愛媛県今治市波方町波方甲2780-2	0898-41-6181		
587	ボディーショップ　オキタ	波方地区	機械器具小売業	愛媛県今治市波方町波方甲1932-7	0898-41-8827		
588	小部購買店舗	波方地区	その他の小売業	愛媛県今治市波方町小部甲895	0898-52-2111		
589	波方給油所	波方地区	その他の小売業	愛媛県今治市波方町樋口甲1670-1	0898-41-9077		
590	波方購買店舗	波方地区	その他の小売業	愛媛県今治市波方町波方甲2264-28	0898-41-9019		
591	波方タクシー石油部	波方地区	その他の小売業	愛媛県今治市波方町樋口甲1371-1	0898-43-0246	34.096398	132.941829
592	樋口営農生活センター	波方地区	その他の小売業	愛媛県今治市波方町樋口甲1670-1	0898-41-9255		
593	いって　もんて　まんて	波方地区	飲食店	愛媛県今治市波方町郷甲1268-2	0898-43-0037		
594	三昌	波方地区	飲食店	愛媛県今治市波方町宮崎乙345-5	0898-52-2070		
595	クリーニングドクターＡコープ波方店	波方地区	洗濯・理容・美容・浴場業	愛媛県今治市波方町樋口甲1670-1	090-5719-8934		
596	八木サッシ製作所	波方地区	その他の生活関連サービス業	愛媛県今治市波方町樋口甲1896-6	0898-43-0252		
597	大池ゴルフ	波方地区	娯楽業	愛媛県今治市波方町樋口甲1547-7	0898-43-0717		
598	学研　ようろう教室	波方地区	その他の教育・学習支援業	愛媛県今治市波方町養老甲783-2	0898-41-8033		
599	Ａコープおおにしアシスタ	大西地区	各種商品小売業	愛媛県今治市大西町紺原甲754-1	0898-53-2286		
600	スポーツスピリットオチ	大西地区	各種商品小売業	愛媛県今治市大西町脇甲1007-1	0898-53-2130		
601	一六本舗　大西店	大西地区	飲食料品小売業	愛媛県今治市大西町大字紺原742-1	0898-36-2116	34.065956	132.934447
602	大河内食品	大西地区	飲食料品小売業	愛媛県今治市大西町新町甲773-2	0898-53-3306		
603	KONEKKO	大西地区	飲食料品小売業	愛媛県今治市大西町紺原甲302-1	0898-35-3522		
604	じょのこし食品	大西地区	飲食料品小売業	愛媛県今治市大西町脇甲1111	0898-53-3695	34.0599	132.91765
605	ファミリーマート今治大西九王店	大西地区	飲食料品小売業	愛媛県今治市大西町九王甲1900-1	0898-36-2021	34.075696	132.929228
606	ファミリーマート大西紺原店	大西地区	飲食料品小売業	愛媛県今治市大西町紺原甲146	0898-36-2002	34.067375	132.936494
607	ファミリーマート大西脇店	大西地区	飲食料品小売業	愛媛県今治市大西町脇甲811-1	0898-53-0755		
608	ヴォルツオートモービル	大西地区	機械器具小売業	愛媛県今治市大西町脇甲968-1	0898-53-5760		
609	久保田電器	大西地区	機械器具小売業	愛媛県今治市大西町紺原甲756-3	0898-53-3528		
610	大西営農生活センター	大西地区	その他の小売業	愛媛県今治市大西町脇甲952-1	0898-53-2018		
611	キクマヤ大西店	大西地区	その他の小売業	愛媛県今治市大西町紺原甲301-1	0898-53-6330		
612	木村石油店	大西地区	その他の小売業	愛媛県今治市大西町九王甲2070-2	0898-53-2179		
613	㈱コメリ　ハード＆グリーン大西店	大西地区	その他の小売業	愛媛県今治市大西町脇甲838	0898-36-2220		
614	サラダ館　大西店	大西地区	その他の小売業	愛媛県今治市大西町脇甲1007-1	0898-53-2130		
615	すみむら薬局	大西地区	その他の小売業	愛媛県今治市大西町紺原甲303-3	0898-53-2029		
616	高井石油	大西地区	その他の小売業	愛媛県今治市大西町宮脇甲490-1	0898-53-2209		
617	東予写真スタンプ	大西地区	その他の小売業	愛媛県今治市大西町脇甲1151	0898-53-2966	34.059198	132.91732
618	ドラッグセイムス今治大西店	大西地区	その他の小売業	愛媛県今治市大西町紺原甲740-1	0898-55-8078	34.065906	132.934819
619	マック大西店	大西地区	その他の小売業	愛媛県今治市大西町宮脇甲466-3	0898-53-0202	34.061736	132.923192
620	村上商店	大西地区	その他の小売業	愛媛県今治市大西町宮脇甲1408-1	0898-53-3535		
621	オーベルジュ	大西地区	飲食店	愛媛県今治市大西町宮脇甲1416-3	0898-53-2104		
622	得得うどん大西店	大西地区	飲食店	愛媛県今治市大西町宮脇甲16-1	0898-53-3155		
623	やき鳥　笑栄	大西地区	飲食店	愛媛県今治市大西町脇甲846	0898-53-4039		
624	クリーニングドクター大西店	大西地区	洗濯・理容・美容・浴場業	愛媛県今治市大西町宮脇1390	090-5719-8935	34.062187	132.926317
625	Ａコープきくま	菊間地区	各種商品小売業	愛媛県今治市菊間町浜1047-1	0898-54-5770	34.037898	132.844657
626	ギフトショップ　やすなが	菊間地区	各種商品小売業	愛媛県今治市菊間町浜533	0898-54-2164	34.035079	132.841727
627	森松衣料品店	菊間地区	織物・衣服・身の回り品小売業	愛媛県今治市菊間町浜674	0898-54-2253	34.033912	132.839483
628	安野商店	菊間地区	織物・衣服・身の回り品小売業	愛媛県今治市菊間町浜725	0898-54-2111	34.035131	132.842099
629	歌仙生活店舗	菊間地区	飲食料品小売業	愛媛県今治市菊間町池原64	0898-54-2042	34.026477	132.857009
630	亀岡生活店舗	菊間地区	飲食料品小売業	愛媛県今治市菊間町種106	0898-54-2202	34.053961	132.873387
631	島田製菓	菊間地区	飲食料品小売業	愛媛県今治市菊間町浜2953	0898-54-2269	34.034137	132.843916
632	タバタヤ菓子舗	菊間地区	飲食料品小売業	愛媛県今治市菊間町浜2889	0898-54-2114	34.033521	132.845502
633	にっしー	菊間地区	飲食料品小売業	愛媛県今治市菊間町種3569-1	0898-22-2588	34.051241	132.865169
634	ファミリーマート菊間町店	菊間地区	飲食料品小売業	愛媛県今治市菊間町浜131	0898-36-3223	34.033818	132.838586
635	森松酒店	菊間地区	飲食料品小売業	愛媛県今治市菊間町浜890-1	0898-54-2020	34.035706	132.842899
636	ローソン太陽石油四国事業所店	菊間地区	飲食料品小売業	愛媛県今治市菊間町種4620	0898-54-5588		
637	渡部味噌醤油店	菊間地区	飲食料品小売業	愛媛県今治市菊間町浜756	0898-54-2237	34.033748	132.83973
638	オートパル菊間	菊間地区	機械器具小売業	愛媛県今治市菊間町浜1141	0898-54-5169	34.038845	132.843829
639	オカダ電化サービス	菊間地区	機械器具小売業	愛媛県今治市菊間町浜1032	0898-54-3938	34.038062	132.845654
640	大門カーセンター	菊間地区	機械器具小売業	愛媛県今治市菊間町種61-3	0898-54-2456	34.054205	132.87181
641	森田タイヤ自転車店	菊間地区	機械器具小売業	愛媛県今治市菊間町浜1054	0898-54-2182	34.038031	132.844357
642	おしゃれの店　やすなが	菊間地区	その他の小売業	愛媛県今治市菊間町浜533	0898-54-2164	34.035079	132.841727
643	歌仙購買店舗	菊間地区	その他の小売業	愛媛県今治市菊間町池原64	0898-54-2042	34.026477	132.857009
644	亀岡購買店舗	菊間地区	その他の小売業	愛媛県今治市菊間町種90-1	0898-54-2202	34.054052	132.872957
645	菊間営農生活センター	菊間地区	その他の小売業	愛媛県今治市菊間町浜1141	0898-54-3000	34.038845	132.843829
646	菊間ガス協業組合	菊間地区	その他の小売業	愛媛県今治市菊間町浜1035	0898-54-3739	34.038445	132.845274
647	菊間給油所	菊間地区	その他の小売業	愛媛県今治市菊間町浜1141	0898-54-4000	34.038845	132.843829
648	丸安工業	菊間地区	その他の小売業	愛媛県今治市菊間町浜1480	0898-54-2266	34.042772	132.849382
649	カンナ美容室	菊間地区	洗濯・理容・美容・浴場業	愛媛県今治市菊間町浜619	0898-54-3645	34.035062	132.840105
650	Ａコープおおしま	吉海地区	各種商品小売業	愛媛県今治市吉海町幸新田256-1	0897-84-2751	34.142641	133.040148
651	ファッションパーク　ヒラタ	吉海地区	織物・衣服・身の回り品小売業	愛媛県今治市吉海町名32	0897-84-4200	34.140811	133.040137
652	ファミリーマート大島吉海店	吉海地区	飲食料品小売業	愛媛県今治市吉海町八幡164	0897-74-9001	34.144574	133.042636
653	エディオン愛媛大島店	吉海地区	機械器具小売業	愛媛県今治市吉海町仁江3154	0897-84-2688	34.14768	133.04953
654	㈲大谷石油	吉海地区	その他の小売業	愛媛県今治市吉海町仁江96-1	0897-84-2829	34.146961	133.048488
655	くすりのレデイ　大島店	吉海地区	その他の小売業	愛媛県今治市吉海町八幡198-1	0897-74-0331	34.142233	133.041626
656	㈱コメリ　ハード＆グリーン吉海店	吉海地区	その他の小売業	愛媛県今治市吉海町仁江84-1	0897-74-0301	34.146983	133.045905
657	ＪＡグリーンしまなみ大島	吉海地区	その他の小売業	愛媛県今治市吉海町幸新田256-1	0897-84-2013	34.142641	133.040148
658	西原電器店	吉海地区	その他の小売業	愛媛県今治市吉海町八幡28	0897-84-3801	34.147933	133.044117
659	㈱藤岡商店	吉海地区	その他の小売業	愛媛県今治市吉海町幸新田172	0897-84-2219	34.148424	133.041956
660	ホームセンター　フジオカ	吉海地区	その他の小売業	愛媛県今治市吉海町名3148-1	0897-84-3511	34.133084	133.038423
661	丸益薬局	吉海地区	その他の小売業	愛媛県今治市吉海町八幡58-3	0897-84-4560	34.146427	133.044669
662	メガネのアイワ	吉海地区	その他の小売業	愛媛県今治市吉海町八幡133-2	0897-84-4447	34.145763	133.043722
663	矢野コンタクト	吉海地区	その他の小売業	愛媛県今治市吉海町八幡218-1	0897-84-3400	34.144516	133.043397
664	吉海給油所	吉海地区	その他の小売業	愛媛県今治市吉海町幸新田256-1	0897-84-2052	34.142641	133.040148
665	吉海渡辺石油㈱	吉海地区	その他の小売業	愛媛県今治市吉海町名18	0897-84-2387	34.141216	133.040703
666	海宿　千年松	吉海地区	宿泊業	愛媛県今治市吉海町名駒25	0897-84-4192	34.109629	133.022577
667	道の駅　よしうみいきいき館	吉海地区	飲食店	愛媛県今治市吉海町名4520-2	0897-84-3710	34.12747	133.021945
668	よしうみローズ館	吉海地区	飲食店	愛媛県今治市吉海町福田1290	0897-84-2970	34.154737	133.041925
669	株式会社　ムラカミサービス	宮窪地区	機械器具小売業	愛媛県今治市宮窪町宮窪4746	0897-86-2358	34.170802	133.070252
670	大島石油	宮窪地区	その他の小売業	愛媛県今治市宮窪町余所国1369-1	0897-86-3424		
671	宮窪購買店舗	宮窪地区	その他の小売業	愛媛県今治市宮窪町宮窪2781	0897-86-2593	34.174241	133.077023
672	（有）矢野石油	宮窪地区	その他の小売業	愛媛県今治市宮窪町宮窪6063	0897-86-2139	34.176854	133.07594
673	民宿とも	宮窪地区	宿泊業	愛媛県今治市宮窪町友浦891	0897-86-3234	34.152449	133.08129
674	矢野モータース	宮窪地区	自動車整備業	愛媛県今治市宮窪町宮窪5776-2	0897-86-2162	34.176471	133.074871
675	Ａコープはかた	伯方地区	各種商品小売業	愛媛県今治市伯方町木浦甲1685-1	0897-72-2273	34.203908	133.114523
676	伯方ショッピングセンター	伯方地区	各種商品小売業	愛媛県今治市伯方町有津甲71	0897-72-3240		
677	トキワ屋	伯方地区	織物・衣服・身の回り品小売業	愛媛県今治市伯方町木浦甲3449-1	0897-72-1147		
678	ファッションαシライシ	伯方地区	織物・衣服・身の回り品小売業	愛媛県今治市伯方町木浦甲1682-5	0897-72-0251		
679	マルヨシ	伯方地区	織物・衣服・身の回り品小売業	愛媛県今治市伯方町木浦甲1571-1	0897-72-1555		
680	村上衣料店	伯方地区	織物・衣服・身の回り品小売業	愛媛県今治市伯方町有津甲2310-12	0897-72-0537		
681	びぜんや	伯方地区	飲食料品小売業	愛媛県今治市伯方町木浦甲2731	0897-72-0518		
682	福助製菓	伯方地区	飲食料品小売業	愛媛県今治市伯方町北浦甲1481-2	0897-73-0147		
683	(有)ミート山岡	伯方地区	飲食料品小売業	愛媛県今治市伯方町木浦甲1679	0897-72-0112		
684	ヤマショウ商店	伯方地区	飲食料品小売業	愛媛県今治市伯方町木浦甲1567-1	0897-72-0052		
685	ローソン伯方島インター店	伯方地区	飲食料品小売業	愛媛県今治市伯方町叶浦甲1361-1	0897-72-2545		
686	織田デンキ	伯方地区	機械器具小売業	愛媛県今治市伯方町木浦甲4525-6	0897-72-1390		
687	村上時計電気店	伯方地区	機械器具小売業	愛媛県今治市伯方町木浦甲4630-2	0897-72-0393		
688	渡邊電気商会	伯方地区	機械器具小売業	愛媛県今治市伯方町伊方甲1828-1	0897-73-0804		
689	いろは書店	伯方地区	その他の小売業	愛媛県今治市伯方町有津甲2322	0897-72-2650	34.203289	133.093617
690	かじや店	伯方地区	その他の小売業	愛媛県今治市伯方町木浦甲1506	0897-72-0108		
691	木浦給油所	伯方地区	その他の小売業	愛媛県今治市伯方町木浦4637-3	0897-72-2897	34.204619	133.116864
692	グリーン薬局	伯方地区	その他の小売業	愛媛県今治市伯方町木浦甲3448-1	0897-72-1521		
693	ザグザグ伯方店	伯方地区	その他の小売業	愛媛県今治市伯方町叶浦甲1666-1	0897-74-9700	34.207988	133.072966
694	ＪＡグリーンしまなみ伯方	伯方地区	その他の小売業	愛媛県今治市伯方町木浦甲1636-2	0897-72-0908		
695	(有)大喜	伯方地区	その他の小売業	愛媛県今治市伯方町叶浦甲166-28	0897-72-2938		
696	松本薬局	伯方地区	その他の小売業	愛媛県今治市伯方町木浦甲3430	0897-72-2569		
697	料理旅館せと	伯方地区	宿泊業	愛媛県今治市伯方町有津甲1857	0897-72-0946		
698	お好み焼き　たんぽぽ	伯方地区	飲食店	愛媛県今治市伯方町有津甲2325	0897-72-1908		
699	お好み焼 鉄板焼き　風	伯方地区	飲食店	愛媛県今治市伯方町叶浦甲1667-5	0897-74-0053		
700	道の駅伯方Ｓ・Ｃパークマリンオアシスはかた	伯方地区	飲食店	愛媛県今治市伯方町叶浦甲1668-1	0897-72-3300		
701	カットハウス　ニコル	伯方地区	洗濯・理容・美容・浴場業	愛媛県今治市伯方町有津甲1560	0897-72-2491		
702	山岡クリーニング店	伯方地区	洗濯・理容・美容・浴場業	愛媛県今治市伯方町木浦甲1680-3	0897-72-0988		
703	山岡クリーニング伯方店	伯方地区	洗濯・理容・美容・浴場業	愛媛県今治市伯方町有津甲71	0897-72-2565		
704	伯方オート商会	伯方地区	自動車整備業	愛媛県今治市伯方町伊方甲731-3	090-6881-6418		
705	株式会社伯方ダイハツ	伯方地区	自動車整備業	愛媛県今治市伯方町伊方甲1020-2	0897-73-1111		
706	Ａコープかみうら	上浦地区	各種商品小売業	愛媛県今治市上浦町井口5311-1	0897-87-4300	34.26824	133.040115
707	サンモール	上浦地区	織物・衣服・身の回り品小売業	愛媛県今治市上浦町井口5663	0897-87-3666	34.266299	133.038937
708	にしはら寝装	上浦地区	織物・衣服・身の回り品小売業	愛媛県今治市上浦町井口6021	0897-87-2158	34.263632	133.034132
709	ショッピングストアーおち	上浦地区	飲食料品小売業	愛媛県今治市上浦町井口6666	0897-87-2026	34.26276	133.041304
710	ファミリーマート多々羅大橋前店	上浦地区	飲食料品小売業	愛媛県今治市上浦町井口7425-1	0897-87-4010	34.258075	133.05118
711	ボッコ製菓	上浦地区	飲食料品小売業	愛媛県今治市上浦町井口5814	0897-87-2855	34.265824	133.039362
712	ＳＳＧ大三島店	上浦地区	機械器具小売業	愛媛県今治市上浦町井口6020	0897-87-2030	34.263474	133.034196
713	上浦電業	上浦地区	機械器具小売業	愛媛県今治市上浦町瀬戸2390	0897-87-3348	34.22621	133.052065
714	タイセイ電化	上浦地区	機械器具小売業	愛媛県今治市上浦町井口5821	0897-87-3166	34.265629	133.039465
715	㈲越智巧商店	上浦地区	その他の小売業	愛媛県今治市上浦町井口6656	0897-87-2015	34.263269	133.040873
716	上浦給油所	上浦地区	その他の小売業	愛媛県今治市上浦町井口5311-1	0897-87-4315	34.26824	133.040115
717	上浦ハート薬局	上浦地区	その他の小売業	愛媛県今治市上浦町井口5297-1	0897-74-0630	34.268101	133.04062
718	コスモヴァンヴェール大三島ＳＳ	上浦地区	その他の小売業	愛媛県今治市上浦町井口5284-1	0897-87-4000	34.268379	133.041526
719	盛購買店舗	上浦地区	その他の小売業	愛媛県今治市上浦町盛2244-1	0897-87-2780	34.293761	133.026318
720	ＪＡグリーンしまなみ上浦	上浦地区	その他の小売業	愛媛県今治市上浦町井口5311-1	0897-87-2914	34.26824	133.040115
721	民宿・レストラン　珈里葡	上浦地区	宿泊業	愛媛県今治市上浦町井口5732	0897-87-2874	34.265504	133.041845
722	CountryTime～カントリータイム～	上浦地区	飲食店	愛媛県今治市上浦町井口5483-2	0897-72-8800	34.263794	133.03428
723	道の駅多々羅しまなみ公園	上浦地区	飲食店	愛媛県今治市上浦町井口9180-2	0897-87-3866	34.254898	133.054391
724	赤宗理容院・サフラン美容室	上浦地区	洗濯・理容・美容・浴場業	愛媛県今治市上浦町井口5812	0897-87-2426	34.26596	133.03909
725	イズム　ヘア　スタジオ	上浦地区	洗濯・理容・美容・浴場業	愛媛県今治市上浦町井口5789-7	0897-87-4107	34.264916	133.041134
726	㈲赤宗商会	上浦地区	自動車整備業	愛媛県今治市上浦町井口5589	0897-87-2170	34.263655	133.036543
727	(株)井上モータース	上浦地区	自動車整備業	愛媛県今治市上浦町瀬戸279	0897-87-2328	34.233981	133.050921
728	島嶼部農機センター	上浦地区	機械等修理業	愛媛県今治市上浦町井口9192	0897-87-2866	34.268995	133.041515
729	Ａコープ大三島店	大三島地区	各種商品小売業	愛媛県今治市大三島町宮浦5367-1	0897-82-0346	34.246337	132.998545
730	かどや商店	大三島地区	織物・衣服・身の回り品小売業	愛媛県今治市大三島町宮浦5626	0897-82-0063	34.247945	132.998268
731	ルフラン	大三島地区	織物・衣服・身の回り品小売業	愛媛県今治市大三島町宮浦5214-3	0897-82-1156	34.245754	132.998976
732	大三島ショッパーズ	大三島地区	飲食料品小売業	愛媛県今治市大三島町宮浦3303-1	0897-82-1747		
733	(有)カナダイ	大三島地区	飲食料品小売業	愛媛県今治市大三島町宮浦5714-3	0897-82-0894	34.247815	132.997129
734	しまなみの駅　御島	大三島地区	飲食料品小売業	愛媛県今治市大三島町宮浦3260	0897-82-0002	34.248962	133.005253
735	宗方丸商店	大三島地区	飲食料品小売業	愛媛県今治市大三島町宗方1466-1	0897-83-0253	34.204484	132.953729
736	(有)村上井盛堂	大三島地区	飲食料品小売業	愛媛県今治市大三島町宮浦5452	0897-82-0029	34.247576	133.000909
737	村上井盛堂神社前店	大三島地区	飲食料品小売業	愛媛県今治市大三島町宮浦5503-1	0897-82-0029	34.248654	133.003203
738	オートパル大三島	大三島地区	機械器具小売業	愛媛県今治市大三島町台334	0897-82-1000	34.240266	132.998382
739	株式会社かんてれびでんき	大三島地区	機械器具小売業	愛媛県今治市大三島町宗方1465	0897-83-0737	34.204448	132.953559
740	岩田屋	大三島地区	その他の小売業	愛媛県今治市大三島町宮浦5600	0897-82-0408	34.248015	132.998918
741	大三島ＬＰガスセンター	大三島地区	その他の小売業	愛媛県今治市大三島町台211	0897-82-0416	34.23921	132.997412
742	岡山購買店舗	大三島地区	その他の小売業	愛媛県今治市大三島町浦戸2-14	0897-83-0033	34.218527	132.96593
743	ＪＡグリーンしまなみ大三島	大三島地区	その他の小売業	愛媛県今治市大三島町台335	0897-82-1200	34.239785	132.998118
744	(有)マーボ	大三島地区	その他の小売業	愛媛県今治市大三島町宮浦5401	0897-82-0728	34.247495	132.998648
745	村上書店	大三島地区	その他の小売業	愛媛県今治市大三島町宮浦5349-1	0897-82-0102	34.246668	132.998329
746	矢野コンタクト	大三島地区	その他の小売業	愛媛県今治市大三島町宮浦5161	0897-82-1650	34.247512	133.000573
747	オーガニックゲストハウス＆カフェ　ＯＨＡＮＡ	大三島地区	宿泊業	愛媛県今治市大三島町宮浦5341	0897-82-0023	34.247293	132.998729
748	cafeつきしろ	大三島地区	飲食店	愛媛県今治市大三島町宮浦5511	0897-72-8530	34.248012	133.00077
749	せとうち茶屋大三島	大三島地区	飲食店	愛媛県今治市大三島町宮浦5119-2	0897-82-0195	34.247737	133.00317
750	並川モータース	大三島地区	自動車整備業	愛媛県今治市大三島町肥海3576	0897-82-0218	34.273862	132.9963
751	関前生活店舗	関前地区	飲食料品小売業	愛媛県今治市関前岡村甲697-17	0897-88-2315	34.184604	132.883759
752	内藤達朗酒店	関前地区	飲食料品小売業	愛媛県今治市関前岡村甲850	0897-88-2105		
753	おおげ購買店舗	関前地区	その他の小売業	愛媛県今治市関前大下甲1930-1	0897-88-2501		
754	ＪＡグリーン関前	関前地区	その他の小売業	愛媛県今治市関前岡村甲697-17	0897-88-2311	34.184604	132.883759
